{
  "type": "FeatureCollection",
  "features": [
    {
      "type": "Feature",
      "geometry": {
        "type": "Point",
        "coordinates": [
          119.6,
          23.57
        ]
      },
      "properties": {
        "일련번호": "AD_JA_001",
        "한국어이름": "동위",
        "대분류": "특수행정 지명",
        "소분류": "기타 행정/군사시설",
        "분류근거": "衛",
        "소속행정구역(省)": "福建",
        "소속행정구역(府/州)": "臺灣",
        "소속행정구역(縣)": "臺灣",
        "소속행정구역(기층)": "澎湖",
        "『표ᄒᆡ록』": "대촌/곤덕ᄇᆡᆨ쳔당",
        "「서이방익사」": "村落/坤德配天堂",
        "『승정원일기』": "一處村落",
        "『일성록』": "一處",
        "경도": "119.60",
        "위도": "23.57",
        "현재 위치 광역 단위": "대만",
        "현재 위치 기초 단위": "펑후현_마궁시",
        "비고(논문 등 연구 참고 사항)": "남호현, 2021a, 97~100",
        "출처(1차사료)": null,
        "_blank_1": null,
        "_layer_id": "ad_ja_points",
        "_layer_title": "행정 지명",
        "_source_file": "AD_JA_PointLayer.csv",
        "Chinese Name": "東衛"
      }
    },
    {
      "type": "Feature",
      "geometry": {
        "type": "Point",
        "coordinates": [
          119.58,
          23.57
        ]
      },
      "properties": {
        "일련번호": "AD_JA_002",
        "한국어이름": "마궁",
        "대분류": "특수행정 지명",
        "소분류": "기타 행정/군사시설",
        "분류근거": "媽宮",
        "소속행정구역(省)": "福建",
        "소속행정구역(府/州)": "臺灣",
        "소속행정구역(縣)": "臺灣",
        "소속행정구역(기층)": "澎湖",
        "『표ᄒᆡ록』": "마궁아문",
        "「서이방익사」": "馬宮 → 馬公",
        "『승정원일기』": "馬宮衙門",
        "『일성록』": "媽宮",
        "경도": "119.58",
        "위도": "23.57",
        "현재 위치 광역 단위": "대만",
        "현재 위치 기초 단위": "펑후현_마궁시",
        "비고(논문 등 연구 참고 사항)": null,
        "출처(1차사료)": null,
        "_blank_1": null,
        "_layer_id": "ad_ja_points",
        "_layer_title": "행정 지명",
        "_source_file": "AD_JA_PointLayer.csv",
        "Chinese Name": "媽宮"
      }
    },
    {
      "type": "Feature",
      "geometry": {
        "type": "Point",
        "coordinates": [
          119.58,
          23.57
        ]
      },
      "properties": {
        "일련번호": "AD_JA_003",
        "한국어이름": "협진아문",
        "대분류": "특수행정 지명",
        "소분류": "행정Lv3/군사시설",
        "분류근거": "衙門",
        "소속행정구역(省)": "福建",
        "소속행정구역(府/州)": "臺灣",
        "소속행정구역(縣)": "臺灣",
        "소속행정구역(기층)": "澎湖",
        "『표ᄒᆡ록』": "팽호부",
        "「서이방익사」": "澎湖",
        "『승정원일기』": "澎湖分府",
        "『일성록』": "澎湖分府",
        "경도": "119.58",
        "위도": "23.57",
        "현재 위치 광역 단위": "대만",
        "현재 위치 기초 단위": "펑후현_마궁시",
        "비고(논문 등 연구 참고 사항)": null,
        "출처(1차사료)": null,
        "_blank_1": null,
        "_layer_id": "ad_ja_points",
        "_layer_title": "행정 지명",
        "_source_file": "AD_JA_PointLayer.csv",
        "Chinese Name": "協鎭衙門"
      }
    },
    {
      "type": "Feature",
      "geometry": {
        "type": "Point",
        "coordinates": [
          120.22,
          23.0
        ]
      },
      "properties": {
        "일련번호": "AD_JA_004",
        "한국어이름": "대만부",
        "대분류": "행정 지명(치소)",
        "소분류": "행정Lv2",
        "분류근거": "府",
        "소속행정구역(省)": "福建",
        "소속행정구역(府/州)": "臺灣",
        "소속행정구역(縣)": "臺灣",
        "소속행정구역(기층)": "-",
        "『표ᄒᆡ록』": "대만부",
        "「서이방익사」": "臺灣府",
        "『승정원일기』": "臺灣府",
        "『일성록』": "臺灣府",
        "경도": "120.22",
        "위도": "23.00",
        "현재 위치 광역 단위": "대만",
        "현재 위치 기초 단위": "타이난시_베이구",
        "비고(논문 등 연구 참고 사항)": null,
        "출처(1차사료)": null,
        "_blank_1": null,
        "_layer_id": "ad_ja_points",
        "_layer_title": "행정 지명",
        "_source_file": "AD_JA_PointLayer.csv",
        "Chinese Name": "臺灣府"
      }
    },
    {
      "type": "Feature",
      "geometry": {
        "type": "Point",
        "coordinates": [
          118.14,
          24.74
        ]
      },
      "properties": {
        "일련번호": "AD_JA_005",
        "한국어이름": "동안현",
        "대분류": "행정 지명(치소)",
        "소분류": "행정Lv3",
        "분류근거": "縣",
        "소속행정구역(省)": "福建",
        "소속행정구역(府/州)": "泉州",
        "소속행정구역(縣)": "同安",
        "소속행정구역(기층)": "-",
        "『표ᄒᆡ록』": "하문본부/하문부",
        "「서이방익사」": "廈門/同安縣治",
        "『승정원일기』": "廈門分部/同安縣",
        "『일성록』": "廈門分府/東安",
        "경도": "118.14",
        "위도": "24.74",
        "현재 위치 광역 단위": "중국_푸젠성",
        "현재 위치 기초 단위": "샤먼시_퉁안구",
        "비고(논문 등 연구 참고 사항)": "남호현, 2021a, 106~108/東安은 同安의 오기로 추정",
        "출처(1차사료)": null,
        "_blank_1": null,
        "_layer_id": "ad_ja_points",
        "_layer_title": "행정 지명",
        "_source_file": "AD_JA_PointLayer.csv",
        "Chinese Name": "同安縣"
      }
    },
    {
      "type": "Feature",
      "geometry": {
        "type": "Point",
        "coordinates": [
          118.25,
          24.66
        ]
      },
      "properties": {
        "일련번호": "AD_JA_006",
        "한국어이름": "마항청",
        "대분류": "특수행정 지명",
        "소분류": "기타 행정시설",
        "분류근거": "廳",
        "소속행정구역(省)": "福建",
        "소속행정구역(府/州)": "泉州",
        "소속행정구역(縣)": "-",
        "소속행정구역(기층)": "馬巷",
        "『표ᄒᆡ록』": "-",
        "「서이방익사」": "-",
        "『승정원일기』": "-",
        "『일성록』": "-",
        "경도": "118.25",
        "위도": "24.66",
        "현재 위치 광역 단위": "중국_푸젠성",
        "현재 위치 기초 단위": "샤먼시_샹안구",
        "비고(논문 등 연구 참고 사항)": "남호현, 2021b, 141~143",
        "출처(1차사료)": null,
        "_blank_1": null,
        "_layer_id": "ad_ja_points",
        "_layer_title": "행정 지명",
        "_source_file": "AD_JA_PointLayer.csv",
        "Chinese Name": "馬巷廳"
      }
    },
    {
      "type": "Feature",
      "geometry": {
        "type": "Point",
        "coordinates": [
          118.59,
          24.91
        ]
      },
      "properties": {
        "일련번호": "AD_JA_007",
        "한국어이름": "천주부",
        "대분류": "행정 지명(치소)",
        "소분류": "행정Lv2",
        "분류근거": "府",
        "소속행정구역(省)": "福建",
        "소속행정구역(府/州)": "泉州",
        "소속행정구역(縣)": "晉江",
        "소속행정구역(기층)": "-",
        "『표ᄒᆡ록』": "천주부",
        "「서이방익사」": "泉州府",
        "『승정원일기』": "泉州府",
        "『일성록』": "泉州府",
        "경도": "118.59",
        "위도": "24.91",
        "현재 위치 광역 단위": "중국_푸젠성",
        "현재 위치 기초 단위": "취안저우시_리청구",
        "비고(논문 등 연구 참고 사항)": null,
        "출처(1차사료)": null,
        "_blank_1": null,
        "_layer_id": "ad_ja_points",
        "_layer_title": "행정 지명",
        "_source_file": "AD_JA_PointLayer.csv",
        "Chinese Name": "泉州府"
      }
    },
    {
      "type": "Feature",
      "geometry": {
        "type": "Point",
        "coordinates": [
          118.8,
          25.02
        ]
      },
      "properties": {
        "일련번호": "AD_JA_008",
        "한국어이름": "혜안현",
        "대분류": "행정 지명(치소)",
        "소분류": "행정Lv3",
        "분류근거": "縣",
        "소속행정구역(省)": "福建",
        "소속행정구역(府/州)": "泉州",
        "소속행정구역(縣)": "惠安",
        "소속행정구역(기층)": "-",
        "『표ᄒᆡ록』": "-",
        "「서이방익사」": "-",
        "『승정원일기』": "-",
        "『일성록』": "惠安",
        "경도": "118.80",
        "위도": "25.02",
        "현재 위치 광역 단위": "중국_푸젠성",
        "현재 위치 기초 단위": "취안저우시_후이안현",
        "비고(논문 등 연구 참고 사항)": null,
        "출처(1차사료)": null,
        "_blank_1": null,
        "_layer_id": "ad_ja_points",
        "_layer_title": "행정 지명",
        "_source_file": "AD_JA_PointLayer.csv",
        "Chinese Name": "惠安縣"
      }
    },
    {
      "type": "Feature",
      "geometry": {
        "type": "Point",
        "coordinates": [
          119.01,
          25.43
        ]
      },
      "properties": {
        "일련번호": "AD_JA_009",
        "한국어이름": "흥화부",
        "대분류": "행정 지명(치소)",
        "소분류": "행정Lv2",
        "분류근거": "府",
        "소속행정구역(省)": "福建",
        "소속행정구역(府/州)": "興化",
        "소속행정구역(縣)": "-",
        "소속행정구역(기층)": "-",
        "『표ᄒᆡ록』": "흥화부",
        "「서이방익사」": "興化府",
        "『승정원일기』": "興化府",
        "『일성록』": "興化府",
        "경도": "119.01",
        "위도": "25.43",
        "현재 위치 광역 단위": "중국_푸젠성",
        "현재 위치 기초 단위": "푸톈시_리청구",
        "비고(논문 등 연구 참고 사항)": null,
        "출처(1차사료)": null,
        "_blank_1": null,
        "_layer_id": "ad_ja_points",
        "_layer_title": "행정 지명",
        "_source_file": "AD_JA_PointLayer.csv",
        "Chinese Name": "興化府"
      }
    },
    {
      "type": "Feature",
      "geometry": {
        "type": "Point",
        "coordinates": [
          119.38,
          25.73
        ]
      },
      "properties": {
        "일련번호": "AD_JA_010",
        "한국어이름": "복청현",
        "대분류": "행정 지명(치소)",
        "소분류": "행정Lv3",
        "분류근거": "縣",
        "소속행정구역(省)": "福建",
        "소속행정구역(府/州)": "福州",
        "소속행정구역(縣)": "福淸",
        "소속행정구역(기층)": "-",
        "『표ᄒᆡ록』": "븍셩의현/봉영현/봉연현",
        "「서이방익사」": "福淸",
        "『승정원일기』": "-",
        "『일성록』": "福淸",
        "경도": "119.38",
        "위도": "25.73",
        "현재 위치 광역 단위": "중국_푸젠성",
        "현재 위치 기초 단위": "푸저우시_푸칭시",
        "비고(논문 등 연구 참고 사항)": null,
        "출처(1차사료)": null,
        "_blank_1": null,
        "_layer_id": "ad_ja_points",
        "_layer_title": "행정 지명",
        "_source_file": "AD_JA_PointLayer.csv",
        "Chinese Name": "福淸縣"
      }
    },
    {
      "type": "Feature",
      "geometry": {
        "type": "Point",
        "coordinates": [
          119.32,
          26.07
        ]
      },
      "properties": {
        "일련번호": "AD_JA_012",
        "한국어이름": "복건성",
        "대분류": "행정 지명(치소)",
        "소분류": "행정Lv1",
        "분류근거": "省",
        "소속행정구역(省)": "福建",
        "소속행정구역(府/州)": "福州",
        "소속행정구역(縣)": "閩",
        "소속행정구역(기층)": "-",
        "『표ᄒᆡ록』": "복건성",
        "「서이방익사」": "福建省城",
        "『승정원일기』": "福建城門",
        "『일성록』": "閩縣/福建城內",
        "경도": "119.32",
        "위도": "26.07",
        "현재 위치 광역 단위": "중국_푸젠성",
        "현재 위치 기초 단위": "푸저우시_구러우구",
        "비고(논문 등 연구 참고 사항)": "민현 치소와 동일",
        "출처(1차사료)": null,
        "_blank_1": null,
        "_layer_id": "ad_ja_points",
        "_layer_title": "행정 지명",
        "_source_file": "AD_JA_PointLayer.csv",
        "Chinese Name": "福建省"
      }
    },
    {
      "type": "Feature",
      "geometry": {
        "type": "Point",
        "coordinates": [
          118.86,
          26.21
        ]
      },
      "properties": {
        "일련번호": "AD_JA_013",
        "한국어이름": "민청현",
        "대분류": "행정 지명(치소)",
        "소분류": "행정Lv3",
        "분류근거": "縣",
        "소속행정구역(省)": "福建",
        "소속행정구역(府/州)": "福州",
        "소속행정구역(縣)": "閩淸",
        "소속행정구역(기층)": "-",
        "『표ᄒᆡ록』": "청현/만청현",
        "「서이방익사」": "閩淸縣",
        "『승정원일기』": "-",
        "『일성록』": "-",
        "경도": "118.86",
        "위도": "26.21",
        "현재 위치 광역 단위": "중국_푸젠성",
        "현재 위치 기초 단위": "푸저우시_민칭현",
        "비고(논문 등 연구 참고 사항)": null,
        "출처(1차사료)": null,
        "_blank_1": null,
        "_layer_id": "ad_ja_points",
        "_layer_title": "행정 지명",
        "_source_file": "AD_JA_PointLayer.csv",
        "Chinese Name": "閩淸縣"
      }
    },
    {
      "type": "Feature",
      "geometry": {
        "type": "Point",
        "coordinates": [
          118.76,
          26.36
        ]
      },
      "properties": {
        "일련번호": "AD_JA_014",
        "한국어이름": "수구진",
        "대분류": "특수행정 지명",
        "소분류": "군사시설",
        "분류근거": "鎭",
        "소속행정구역(省)": "福建",
        "소속행정구역(府/州)": "福州",
        "소속행정구역(縣)": "古田",
        "소속행정구역(기층)": "-",
        "『표ᄒᆡ록』": "슈구부/수구부",
        "「서이방익사」": "-",
        "『승정원일기』": "水口分部",
        "『일성록』": "-",
        "경도": "118.76",
        "위도": "26.36",
        "현재 위치 광역 단위": "중국_푸젠성",
        "현재 위치 기초 단위": "닝더시_구톈현",
        "비고(논문 등 연구 참고 사항)": null,
        "출처(1차사료)": null,
        "_blank_1": null,
        "_layer_id": "ad_ja_points",
        "_layer_title": "행정 지명",
        "_source_file": "AD_JA_PointLayer.csv",
        "Chinese Name": "水口鎭"
      }
    },
    {
      "type": "Feature",
      "geometry": {
        "type": "Point",
        "coordinates": [
          118.17,
          26.64
        ]
      },
      "properties": {
        "일련번호": "AD_JA_015",
        "한국어이름": "남평현",
        "대분류": "행정 지명(치소)",
        "소분류": "행정Lv3",
        "분류근거": "縣",
        "소속행정구역(省)": "福建",
        "소속행정구역(府/州)": "延平",
        "소속행정구역(縣)": "南平",
        "소속행정구역(기층)": "-",
        "『표ᄒᆡ록』": "남졍현",
        "「서이방익사」": "南平縣*",
        "『승정원일기』": "-",
        "『일성록』": "-",
        "경도": "118.17",
        "위도": "26.64",
        "현재 위치 광역 단위": "중국_푸젠성",
        "현재 위치 기초 단위": "난핑시_옌핑구",
        "비고(논문 등 연구 참고 사항)": null,
        "출처(1차사료)": null,
        "_blank_1": null,
        "_layer_id": "ad_ja_points",
        "_layer_title": "행정 지명",
        "_source_file": "AD_JA_PointLayer.csv",
        "Chinese Name": "南平縣"
      }
    },
    {
      "type": "Feature",
      "geometry": {
        "type": "Point",
        "coordinates": [
          118.32,
          27.04
        ]
      },
      "properties": {
        "일련번호": "AD_JA_016",
        "한국어이름": "건녕부",
        "대분류": "행정 지명(치소)",
        "소분류": "행정Lv2",
        "분류근거": "府",
        "소속행정구역(省)": "福建",
        "소속행정구역(府/州)": "建寧",
        "소속행정구역(縣)": "-",
        "소속행정구역(기층)": "-",
        "『표ᄒᆡ록』": "건영부",
        "「서이방익사」": "建寧府*",
        "『승정원일기』": "-",
        "『일성록』": "-",
        "경도": "118.32",
        "위도": "27.04",
        "현재 위치 광역 단위": "중국_푸젠성",
        "현재 위치 기초 단위": "난핑시_젠어우시",
        "비고(논문 등 연구 참고 사항)": null,
        "출처(1차사료)": null,
        "_blank_1": null,
        "_layer_id": "ad_ja_points",
        "_layer_title": "행정 지명",
        "_source_file": "AD_JA_PointLayer.csv",
        "Chinese Name": "建寧府"
      }
    },
    {
      "type": "Feature",
      "geometry": {
        "type": "Point",
        "coordinates": [
          118.11,
          27.34
        ]
      },
      "properties": {
        "일련번호": "AD_JA_017",
        "한국어이름": "건양현",
        "대분류": "행정 지명(치소)",
        "소분류": "행정Lv3",
        "분류근거": "縣",
        "소속행정구역(省)": "福建",
        "소속행정구역(府/州)": "建寧",
        "소속행정구역(縣)": "建陽",
        "소속행정구역(기층)": "-",
        "『표ᄒᆡ록』": "건안현영",
        "「서이방익사」": "建陽縣*",
        "『승정원일기』": "-",
        "『일성록』": "-",
        "경도": "118.11",
        "위도": "27.34",
        "현재 위치 광역 단위": "중국_푸젠성",
        "현재 위치 기초 단위": "난핑시_젠양구",
        "비고(논문 등 연구 참고 사항)": null,
        "출처(1차사료)": null,
        "_blank_1": null,
        "_layer_id": "ad_ja_points",
        "_layer_title": "행정 지명",
        "_source_file": "AD_JA_PointLayer.csv",
        "Chinese Name": "建陽縣"
      }
    },
    {
      "type": "Feature",
      "geometry": {
        "type": "Point",
        "coordinates": [
          118.54,
          27.92
        ]
      },
      "properties": {
        "일련번호": "AD_JA_018",
        "한국어이름": "포성현",
        "대분류": "행정 지명(치소)",
        "소분류": "행정Lv3",
        "분류근거": "縣",
        "소속행정구역(省)": "福建",
        "소속행정구역(府/州)": "建寧",
        "소속행정구역(縣)": "浦城",
        "소속행정구역(기층)": "-",
        "『표ᄒᆡ록』": "은셩현",
        "「서이방익사」": "浦城縣*",
        "『승정원일기』": "-",
        "『일성록』": "-",
        "경도": "118.54",
        "위도": "27.92",
        "현재 위치 광역 단위": "중국_푸젠성",
        "현재 위치 기초 단위": "난핑시_푸청현",
        "비고(논문 등 연구 참고 사항)": null,
        "출처(1차사료)": null,
        "_blank_1": null,
        "_layer_id": "ad_ja_points",
        "_layer_title": "행정 지명",
        "_source_file": "AD_JA_PointLayer.csv",
        "Chinese Name": "浦城縣"
      }
    },
    {
      "type": "Feature",
      "geometry": {
        "type": "Point",
        "coordinates": [
          118.62,
          28.74
        ]
      },
      "properties": {
        "일련번호": "AD_JA_019",
        "한국어이름": "강산현",
        "대분류": "행정 지명(치소)",
        "소분류": "행정Lv3",
        "분류근거": "縣",
        "소속행정구역(省)": "浙江",
        "소속행정구역(府/州)": "衢州",
        "소속행정구역(縣)": "江山",
        "소속행정구역(기층)": "-",
        "『표ᄒᆡ록』": "강샹현",
        "「서이방익사」": "江山縣",
        "『승정원일기』": "江山縣",
        "『일성록』": "-",
        "경도": "118.62",
        "위도": "28.74",
        "현재 위치 광역 단위": "중국_저장성",
        "현재 위치 기초 단위": "취저우시_장산시",
        "비고(논문 등 연구 참고 사항)": null,
        "출처(1차사료)": null,
        "_blank_1": null,
        "_layer_id": "ad_ja_points",
        "_layer_title": "행정 지명",
        "_source_file": "AD_JA_PointLayer.csv",
        "Chinese Name": "江山縣"
      }
    },
    {
      "type": "Feature",
      "geometry": {
        "type": "Point",
        "coordinates": [
          118.87,
          28.96
        ]
      },
      "properties": {
        "일련번호": "AD_JA_020",
        "한국어이름": "구주부",
        "대분류": "행정 지명(치소)",
        "소분류": "행정Lv2",
        "분류근거": "府",
        "소속행정구역(省)": "浙江",
        "소속행정구역(府/州)": "衢州",
        "소속행정구역(縣)": "-",
        "소속행정구역(기층)": "-",
        "『표ᄒᆡ록』": "형쥬부",
        "「서이방익사」": "衢州府",
        "『승정원일기』": "-",
        "『일성록』": "-",
        "경도": "118.87",
        "위도": "28.96",
        "현재 위치 광역 단위": "중국_저장성",
        "현재 위치 기초 단위": "취저우시_커청구",
        "비고(논문 등 연구 참고 사항)": "서안현 치소와 동일",
        "출처(1차사료)": null,
        "_blank_1": null,
        "_layer_id": "ad_ja_points",
        "_layer_title": "행정 지명",
        "_source_file": "AD_JA_PointLayer.csv",
        "Chinese Name": "衢州府"
      }
    },
    {
      "type": "Feature",
      "geometry": {
        "type": "Point",
        "coordinates": [
          119.17,
          29.03
        ]
      },
      "properties": {
        "일련번호": "AD_JA_021",
        "한국어이름": "용유현",
        "대분류": "행정 지명(치소)",
        "소분류": "행정Lv3",
        "분류근거": "縣",
        "소속행정구역(省)": "浙江",
        "소속행정구역(府/州)": "衢州",
        "소속행정구역(縣)": "龍游",
        "소속행정구역(기층)": "-",
        "『표ᄒᆡ록』": "후유현",
        "「서이방익사」": "龍游縣",
        "『승정원일기』": "-",
        "『일성록』": "-",
        "경도": "119.17",
        "위도": "29.03",
        "현재 위치 광역 단위": "중국_저장성",
        "현재 위치 기초 단위": "취저우시_룽유현",
        "비고(논문 등 연구 참고 사항)": null,
        "출처(1차사료)": null,
        "_blank_1": null,
        "_layer_id": "ad_ja_points",
        "_layer_title": "행정 지명",
        "_source_file": "AD_JA_PointLayer.csv",
        "Chinese Name": "龍游縣"
      }
    },
    {
      "type": "Feature",
      "geometry": {
        "type": "Point",
        "coordinates": [
          119.5,
          29.54
        ]
      },
      "properties": {
        "일련번호": "AD_JA_022",
        "한국어이름": "건덕현",
        "대분류": "행정 지명(치소)",
        "소분류": "행정Lv3",
        "분류근거": "縣",
        "소속행정구역(省)": "浙江",
        "소속행정구역(府/州)": "嚴州",
        "소속행정구역(縣)": "建德",
        "소속행정구역(기층)": "-",
        "『표ᄒᆡ록』": "건덕현",
        "「서이방익사」": "建德縣*",
        "『승정원일기』": "-",
        "『일성록』": "-",
        "경도": "119.50",
        "위도": "29.54",
        "현재 위치 광역 단위": "중국_저장성",
        "현재 위치 기초 단위": "항저우시_젠더시",
        "비고(논문 등 연구 참고 사항)": "엄주부 치소와 동일",
        "출처(1차사료)": null,
        "_blank_1": null,
        "_layer_id": "ad_ja_points",
        "_layer_title": "행정 지명",
        "_source_file": "AD_JA_PointLayer.csv",
        "Chinese Name": "建德縣"
      }
    },
    {
      "type": "Feature",
      "geometry": {
        "type": "Point",
        "coordinates": [
          119.5,
          29.54
        ]
      },
      "properties": {
        "일련번호": "AD_JA_023",
        "한국어이름": "엄주부",
        "대분류": "행정 지명(치소)",
        "소분류": "행정Lv2",
        "분류근거": "府",
        "소속행정구역(省)": "浙江",
        "소속행정구역(府/州)": "嚴州",
        "소속행정구역(縣)": "-",
        "소속행정구역(기층)": "-",
        "『표ᄒᆡ록』": "엄ᄌᆔ부",
        "「서이방익사」": "嚴州府",
        "『승정원일기』": "嚴州",
        "『일성록』": "嚴州",
        "경도": "119.50",
        "위도": "29.54",
        "현재 위치 광역 단위": "중국_저장성",
        "현재 위치 기초 단위": "항저우시_젠더시",
        "비고(논문 등 연구 참고 사항)": "건덕현 치소와 동일",
        "출처(1차사료)": null,
        "_blank_1": null,
        "_layer_id": "ad_ja_points",
        "_layer_title": "행정 지명",
        "_source_file": "AD_JA_PointLayer.csv",
        "Chinese Name": "嚴州府"
      }
    },
    {
      "type": "Feature",
      "geometry": {
        "type": "Point",
        "coordinates": [
          119.66,
          29.8
        ]
      },
      "properties": {
        "일련번호": "AD_JA_025",
        "한국어이름": "동로현",
        "대분류": "행정 지명(치소)",
        "소분류": "행정Lv3",
        "분류근거": "縣",
        "소속행정구역(省)": "浙江",
        "소속행정구역(府/州)": "嚴州",
        "소속행정구역(縣)": "桐盧",
        "소속행정구역(기층)": "-",
        "『표ᄒᆡ록』": "듕노현",
        "「서이방익사」": "桐廬縣",
        "『승정원일기』": "-",
        "『일성록』": "-",
        "경도": "119.66",
        "위도": "29.80",
        "현재 위치 광역 단위": "-",
        "현재 위치 기초 단위": "-",
        "비고(논문 등 연구 참고 사항)": null,
        "출처(1차사료)": null,
        "_blank_1": null,
        "_layer_id": "ad_ja_points",
        "_layer_title": "행정 지명",
        "_source_file": "AD_JA_PointLayer.csv",
        "Chinese Name": "桐盧縣"
      }
    },
    {
      "type": "Feature",
      "geometry": {
        "type": "Point",
        "coordinates": [
          119.95,
          30.05
        ]
      },
      "properties": {
        "일련번호": "AD_JA_026",
        "한국어이름": "부양현",
        "대분류": "행정 지명(치소)",
        "소분류": "행정Lv3",
        "분류근거": "縣",
        "소속행정구역(省)": "浙江",
        "소속행정구역(府/州)": "杭州",
        "소속행정구역(縣)": "富陽",
        "소속행정구역(기층)": "-",
        "『표ᄒᆡ록』": "부양현",
        "「서이방익사」": "富陽縣*",
        "『승정원일기』": "-",
        "『일성록』": "-",
        "경도": "119.95",
        "위도": "30.05",
        "현재 위치 광역 단위": "중국_저장성",
        "현재 위치 기초 단위": "항저우시_푸양구",
        "비고(논문 등 연구 참고 사항)": null,
        "출처(1차사료)": null,
        "_blank_1": null,
        "_layer_id": "ad_ja_points",
        "_layer_title": "행정 지명",
        "_source_file": "AD_JA_PointLayer.csv",
        "Chinese Name": "富陽縣"
      }
    },
    {
      "type": "Feature",
      "geometry": {
        "type": "Point",
        "coordinates": [
          120.17,
          30.29
        ]
      },
      "properties": {
        "일련번호": "AD_JA_027",
        "한국어이름": "항주부",
        "대분류": "행정 지명(치소)",
        "소분류": "행정Lv2",
        "분류근거": "府",
        "소속행정구역(省)": "浙江",
        "소속행정구역(府/州)": "杭州",
        "소속행정구역(縣)": "-",
        "소속행정구역(기층)": "-",
        "『표ᄒᆡ록』": "황ᄌᆔ",
        "「서이방익사」": "杭州府/杭州",
        "『승정원일기』": "杭州",
        "『일성록』": "杭州",
        "경도": "120.17",
        "위도": "30.29",
        "현재 위치 광역 단위": "중국_저장성",
        "현재 위치 기초 단위": "항저우시_샤청구",
        "비고(논문 등 연구 참고 사항)": null,
        "출처(1차사료)": null,
        "_blank_1": null,
        "_layer_id": "ad_ja_points",
        "_layer_title": "행정 지명",
        "_source_file": "AD_JA_PointLayer.csv",
        "Chinese Name": "杭州府"
      }
    },
    {
      "type": "Feature",
      "geometry": {
        "type": "Point",
        "coordinates": [
          120.42,
          30.53
        ]
      },
      "properties": {
        "일련번호": "AD_JA_028",
        "한국어이름": "석문현",
        "대분류": "행정 지명(치소)",
        "소분류": "행정Lv3",
        "분류근거": "縣",
        "소속행정구역(省)": "浙江",
        "소속행정구역(府/州)": "嘉興",
        "소속행정구역(縣)": "石門",
        "소속행정구역(기층)": "-",
        "『표ᄒᆡ록』": "-",
        "「서이방익사」": "石門縣*",
        "『승정원일기』": "-",
        "『일성록』": "-",
        "경도": "120.42",
        "위도": "30.53",
        "현재 위치 광역 단위": "중국_저장성",
        "현재 위치 기초 단위": "자싱시_퉁샹시",
        "비고(논문 등 연구 참고 사항)": null,
        "출처(1차사료)": null,
        "_blank_1": null,
        "_layer_id": "ad_ja_points",
        "_layer_title": "행정 지명",
        "_source_file": "AD_JA_PointLayer.csv",
        "Chinese Name": "石門縣"
      }
    },
    {
      "type": "Feature",
      "geometry": {
        "type": "Point",
        "coordinates": [
          120.75,
          30.77
        ]
      },
      "properties": {
        "일련번호": "AD_JA_029",
        "한국어이름": "가흥부",
        "대분류": "행정 지명(치소)",
        "소분류": "행정Lv2",
        "분류근거": "府",
        "소속행정구역(省)": "浙江",
        "소속행정구역(府/州)": "嘉興",
        "소속행정구역(縣)": "-",
        "소속행정구역(기층)": "-",
        "『표ᄒᆡ록』": "-",
        "「서이방익사」": "嘉興府*",
        "『승정원일기』": "-",
        "『일성록』": "-",
        "경도": "120.75",
        "위도": "30.77",
        "현재 위치 광역 단위": "중국_저장성",
        "현재 위치 기초 단위": "자싱시_난후구",
        "비고(논문 등 연구 참고 사항)": null,
        "출처(1차사료)": null,
        "_blank_1": null,
        "_layer_id": "ad_ja_points",
        "_layer_title": "행정 지명",
        "_source_file": "AD_JA_PointLayer.csv",
        "Chinese Name": "嘉興府"
      }
    },
    {
      "type": "Feature",
      "geometry": {
        "type": "Point",
        "coordinates": [
          120.3,
          31.57
        ]
      },
      "properties": {
        "일련번호": "AD_JA_030",
        "한국어이름": "무석현",
        "대분류": "행정 지명(치소)",
        "소분류": "행정Lv3",
        "분류근거": "縣",
        "소속행정구역(省)": "江蘇",
        "소속행정구역(府/州)": "常州",
        "소속행정구역(縣)": "無錫",
        "소속행정구역(기층)": "-",
        "『표ᄒᆡ록』": "-",
        "「서이방익사」": "-",
        "『승정원일기』": "-",
        "『일성록』": "-",
        "경도": "120.30",
        "위도": "31.57",
        "현재 위치 광역 단위": "중국_장쑤성",
        "현재 위치 기초 단위": "우시시_충안구",
        "비고(논문 등 연구 참고 사항)": "『京杭運河史』",
        "출처(1차사료)": null,
        "_blank_1": null,
        "_layer_id": "ad_ja_points",
        "_layer_title": "행정 지명",
        "_source_file": "AD_JA_PointLayer.csv",
        "Chinese Name": "無錫縣"
      }
    },
    {
      "type": "Feature",
      "geometry": {
        "type": "Point",
        "coordinates": [
          119.95,
          31.78
        ]
      },
      "properties": {
        "일련번호": "AD_JA_031",
        "한국어이름": "상주부",
        "대분류": "행정 지명(치소)",
        "소분류": "행정Lv2",
        "분류근거": "府",
        "소속행정구역(省)": "江蘇",
        "소속행정구역(府/州)": "常州",
        "소속행정구역(縣)": "-",
        "소속행정구역(기층)": "-",
        "『표ᄒᆡ록』": "-",
        "「서이방익사」": "-",
        "『승정원일기』": "-",
        "『일성록』": "-",
        "경도": "119.95",
        "위도": "31.78",
        "현재 위치 광역 단위": "중국_장쑤성",
        "현재 위치 기초 단위": "창저우시_톈닝구",
        "비고(논문 등 연구 참고 사항)": "『京杭運河史』",
        "출처(1차사료)": null,
        "_blank_1": null,
        "_layer_id": "ad_ja_points",
        "_layer_title": "행정 지명",
        "_source_file": "AD_JA_PointLayer.csv",
        "Chinese Name": "常州府"
      }
    },
    {
      "type": "Feature",
      "geometry": {
        "type": "Point",
        "coordinates": [
          119.57,
          32.0
        ]
      },
      "properties": {
        "일련번호": "AD_JA_032",
        "한국어이름": "단양현",
        "대분류": "행정 지명(치소)",
        "소분류": "행정Lv3",
        "분류근거": "縣",
        "소속행정구역(省)": "江蘇",
        "소속행정구역(府/州)": "鎭江",
        "소속행정구역(縣)": "丹陽",
        "소속행정구역(기층)": "-",
        "『표ᄒᆡ록』": "-",
        "「서이방익사」": "-",
        "『승정원일기』": "-",
        "『일성록』": "-",
        "경도": "119.57",
        "위도": "32.00",
        "현재 위치 광역 단위": "중국_장쑤성",
        "현재 위치 기초 단위": "전장시_단양시",
        "비고(논문 등 연구 참고 사항)": "『京杭運河史』",
        "출처(1차사료)": null,
        "_blank_1": null,
        "_layer_id": "ad_ja_points",
        "_layer_title": "행정 지명",
        "_source_file": "AD_JA_PointLayer.csv",
        "Chinese Name": "丹陽縣"
      }
    },
    {
      "type": "Feature",
      "geometry": {
        "type": "Point",
        "coordinates": [
          119.44,
          32.21
        ]
      },
      "properties": {
        "일련번호": "AD_JA_033",
        "한국어이름": "진강부",
        "대분류": "행정 지명(치소)",
        "소분류": "행정Lv2",
        "분류근거": "府",
        "소속행정구역(省)": "江蘇",
        "소속행정구역(府/州)": "鎭江",
        "소속행정구역(縣)": "-",
        "소속행정구역(기층)": "-",
        "『표ᄒᆡ록』": "-",
        "「서이방익사」": "-",
        "『승정원일기』": "-",
        "『일성록』": "-",
        "경도": "119.44",
        "위도": "32.21",
        "현재 위치 광역 단위": "중국_장쑤성",
        "현재 위치 기초 단위": "전장시_룬저우구",
        "비고(논문 등 연구 참고 사항)": null,
        "출처(1차사료)": "『周行備覽』",
        "_blank_1": null,
        "_layer_id": "ad_ja_points",
        "_layer_title": "행정 지명",
        "_source_file": "AD_JA_PointLayer.csv",
        "Chinese Name": "鎭江府"
      }
    },
    {
      "type": "Feature",
      "geometry": {
        "type": "Point",
        "coordinates": [
          118.36,
          31.33
        ]
      },
      "properties": {
        "일련번호": "AD_JA_034",
        "한국어이름": "무호현",
        "대분류": "행정 지명(치소)",
        "소분류": "행정Lv3",
        "분류근거": "縣",
        "소속행정구역(省)": "安徽",
        "소속행정구역(府/州)": "太平",
        "소속행정구역(縣)": "蕪湖",
        "소속행정구역(기층)": "-",
        "『표ᄒᆡ록』": "-",
        "「서이방익사」": "-",
        "『승정원일기』": "-",
        "『일성록』": "-",
        "경도": "118.36",
        "위도": "31.33",
        "현재 위치 광역 단위": "중국_안후이성",
        "현재 위치 기초 단위": "우후시_징후구",
        "비고(논문 등 연구 참고 사항)": null,
        "출처(1차사료)": "『周行備覽』",
        "_blank_1": null,
        "_layer_id": "ad_ja_points",
        "_layer_title": "행정 지명",
        "_source_file": "AD_JA_PointLayer.csv",
        "Chinese Name": "蕪湖縣"
      }
    },
    {
      "type": "Feature",
      "geometry": {
        "type": "Point",
        "coordinates": [
          117.79,
          30.95
        ]
      },
      "properties": {
        "일련번호": "AD_JA_035",
        "한국어이름": "동릉현",
        "대분류": "행정 지명(치소)",
        "소분류": "행정Lv3",
        "분류근거": "縣",
        "소속행정구역(省)": "安徽",
        "소속행정구역(府/州)": "池州",
        "소속행정구역(縣)": "銅陵",
        "소속행정구역(기층)": "-",
        "『표ᄒᆡ록』": "-",
        "「서이방익사」": "-",
        "『승정원일기』": "-",
        "『일성록』": "-",
        "경도": "117.79",
        "위도": "30.95",
        "현재 위치 광역 단위": "중국_안후이성",
        "현재 위치 기초 단위": "통링시_이안구",
        "비고(논문 등 연구 참고 사항)": null,
        "출처(1차사료)": "『周行備覽』",
        "_blank_1": null,
        "_layer_id": "ad_ja_points",
        "_layer_title": "행정 지명",
        "_source_file": "AD_JA_PointLayer.csv",
        "Chinese Name": "銅陵縣"
      }
    },
    {
      "type": "Feature",
      "geometry": {
        "type": "Point",
        "coordinates": [
          117.03,
          30.51
        ]
      },
      "properties": {
        "일련번호": "AD_JA_036",
        "한국어이름": "안경부",
        "대분류": "행정 지명(치소)",
        "소분류": "행정Lv2",
        "분류근거": "府",
        "소속행정구역(省)": "安徽",
        "소속행정구역(府/州)": "安慶",
        "소속행정구역(縣)": "-",
        "소속행정구역(기층)": "-",
        "『표ᄒᆡ록』": "-",
        "「서이방익사」": "-",
        "『승정원일기』": "-",
        "『일성록』": "-",
        "경도": "117.03",
        "위도": "30.51",
        "현재 위치 광역 단위": "중국_안후이성",
        "현재 위치 기초 단위": "안칭시_다관구",
        "비고(논문 등 연구 참고 사항)": null,
        "출처(1차사료)": "『周行備覽』",
        "_blank_1": null,
        "_layer_id": "ad_ja_points",
        "_layer_title": "행정 지명",
        "_source_file": "AD_JA_PointLayer.csv",
        "Chinese Name": "安慶府"
      }
    },
    {
      "type": "Feature",
      "geometry": {
        "type": "Point",
        "coordinates": [
          116.91,
          30.21
        ]
      },
      "properties": {
        "일련번호": "AD_JA_037",
        "한국어이름": "동류현",
        "대분류": "행정 지명(치소)",
        "소분류": "행정Lv3",
        "분류근거": "縣",
        "소속행정구역(省)": "安徽",
        "소속행정구역(府/州)": "池州",
        "소속행정구역(縣)": "東流",
        "소속행정구역(기층)": "-",
        "『표ᄒᆡ록』": "-",
        "「서이방익사」": "-",
        "『승정원일기』": "-",
        "『일성록』": "-",
        "경도": "116.91",
        "위도": "30.21",
        "현재 위치 광역 단위": "중국_안후이성",
        "현재 위치 기초 단위": "츠저우시_둥즈현",
        "비고(논문 등 연구 참고 사항)": null,
        "출처(1차사료)": "『周行備覽』",
        "_blank_1": null,
        "_layer_id": "ad_ja_points",
        "_layer_title": "행정 지명",
        "_source_file": "AD_JA_PointLayer.csv",
        "Chinese Name": "東流縣"
      }
    },
    {
      "type": "Feature",
      "geometry": {
        "type": "Point",
        "coordinates": [
          116.55,
          29.9
        ]
      },
      "properties": {
        "일련번호": "AD_JA_038",
        "한국어이름": "팽택현",
        "대분류": "행정 지명(치소)",
        "소분류": "행정Lv3",
        "분류근거": "縣",
        "소속행정구역(省)": "江西",
        "소속행정구역(府/州)": "九江",
        "소속행정구역(縣)": "彭澤",
        "소속행정구역(기층)": "-",
        "『표ᄒᆡ록』": "-",
        "「서이방익사」": "-",
        "『승정원일기』": "-",
        "『일성록』": "-",
        "경도": "116.55",
        "위도": "29.90",
        "현재 위치 광역 단위": "중국_장시성",
        "현재 위치 기초 단위": "주장시_펑저현",
        "비고(논문 등 연구 참고 사항)": null,
        "출처(1차사료)": "『周行備覽』",
        "_blank_1": null,
        "_layer_id": "ad_ja_points",
        "_layer_title": "행정 지명",
        "_source_file": "AD_JA_PointLayer.csv",
        "Chinese Name": "彭澤縣"
      }
    },
    {
      "type": "Feature",
      "geometry": {
        "type": "Point",
        "coordinates": [
          115.99,
          29.72
        ]
      },
      "properties": {
        "일련번호": "AD_JA_039",
        "한국어이름": "구강부",
        "대분류": "행정 지명(치소)",
        "소분류": "행정Lv2",
        "분류근거": "府",
        "소속행정구역(省)": "江西",
        "소속행정구역(府/州)": "九江",
        "소속행정구역(縣)": "-",
        "소속행정구역(기층)": "-",
        "『표ᄒᆡ록』": "구강",
        "「서이방익사」": "-",
        "『승정원일기』": "-",
        "『일성록』": "-",
        "경도": "115.99",
        "위도": "29.72",
        "현재 위치 광역 단위": "중국_장시성",
        "현재 위치 기초 단위": "주장시_쉰양구",
        "비고(논문 등 연구 참고 사항)": null,
        "출처(1차사료)": "『周行備覽』",
        "_blank_1": null,
        "_layer_id": "ad_ja_points",
        "_layer_title": "행정 지명",
        "_source_file": "AD_JA_PointLayer.csv",
        "Chinese Name": "九江府"
      }
    },
    {
      "type": "Feature",
      "geometry": {
        "type": "Point",
        "coordinates": [
          114.87,
          30.45
        ]
      },
      "properties": {
        "일련번호": "AD_JA_040",
        "한국어이름": "황주부",
        "대분류": "행정 지명(치소)",
        "소분류": "행정Lv2",
        "분류근거": "府",
        "소속행정구역(省)": "湖北",
        "소속행정구역(府/州)": "黃州",
        "소속행정구역(縣)": null,
        "소속행정구역(기층)": "-",
        "『표ᄒᆡ록』": "-",
        "「서이방익사」": "-",
        "『승정원일기』": "-",
        "『일성록』": "-",
        "경도": "114.87",
        "위도": "30.45",
        "현재 위치 광역 단위": "중국_후베이성",
        "현재 위치 기초 단위": "황강시_황저우구",
        "비고(논문 등 연구 참고 사항)": "『京杭運河史』",
        "출처(1차사료)": null,
        "_blank_1": null,
        "_layer_id": "ad_ja_points",
        "_layer_title": "행정 지명",
        "_source_file": "AD_JA_PointLayer.csv",
        "Chinese Name": "黃州府"
      }
    },
    {
      "type": "Feature",
      "geometry": {
        "type": "Point",
        "coordinates": [
          114.31,
          30.56
        ]
      },
      "properties": {
        "일련번호": "AD_JA_041",
        "한국어이름": "무창부",
        "대분류": "행정 지명(치소)",
        "소분류": "행정Lv2",
        "분류근거": "府",
        "소속행정구역(省)": "湖北",
        "소속행정구역(府/州)": "武昌",
        "소속행정구역(縣)": null,
        "소속행정구역(기층)": "-",
        "『표ᄒᆡ록』": "-",
        "「서이방익사」": "-",
        "『승정원일기』": "-",
        "『일성록』": "-",
        "경도": "114.31",
        "위도": "30.56",
        "현재 위치 광역 단위": "중국_후베이성",
        "현재 위치 기초 단위": "우한시_우창구",
        "비고(논문 등 연구 참고 사항)": "『京杭運河史』",
        "출처(1차사료)": null,
        "_blank_1": null,
        "_layer_id": "ad_ja_points",
        "_layer_title": "행정 지명",
        "_source_file": "AD_JA_PointLayer.csv",
        "Chinese Name": "武昌府"
      }
    },
    {
      "type": "Feature",
      "geometry": {
        "type": "Point",
        "coordinates": [
          113.9,
          29.98
        ]
      },
      "properties": {
        "일련번호": "AD_JA_042",
        "한국어이름": "가어현",
        "대분류": "행정 지명(치소)",
        "소분류": "행정Lv3",
        "분류근거": "縣",
        "소속행정구역(省)": "湖北",
        "소속행정구역(府/州)": "武昌",
        "소속행정구역(縣)": "嘉魚",
        "소속행정구역(기층)": "-",
        "『표ᄒᆡ록』": "-",
        "「서이방익사」": "-",
        "『승정원일기』": "-",
        "『일성록』": "-",
        "경도": "113.90",
        "위도": "29.98",
        "현재 위치 광역 단위": "중국_후베이성",
        "현재 위치 기초 단위": "셴닝시_자위현",
        "비고(논문 등 연구 참고 사항)": "『京杭運河史』",
        "출처(1차사료)": null,
        "_blank_1": null,
        "_layer_id": "ad_ja_points",
        "_layer_title": "행정 지명",
        "_source_file": "AD_JA_PointLayer.csv",
        "Chinese Name": "嘉魚縣"
      }
    },
    {
      "type": "Feature",
      "geometry": {
        "type": "Point",
        "coordinates": [
          113.1,
          29.37
        ]
      },
      "properties": {
        "일련번호": "AD_JA_043",
        "한국어이름": "악주부",
        "대분류": "행정 지명(치소)",
        "소분류": "행정Lv2",
        "분류근거": "府",
        "소속행정구역(省)": "湖南",
        "소속행정구역(府/州)": "岳州",
        "소속행정구역(縣)": "-",
        "소속행정구역(기층)": "-",
        "『표ᄒᆡ록』": "악주",
        "「서이방익사」": "岳陽樓",
        "『승정원일기』": "岳陽樓",
        "『일성록』": "-",
        "경도": "113.10",
        "위도": "29.37",
        "현재 위치 광역 단위": "중국_후난성",
        "현재 위치 기초 단위": "웨양시_웨양현",
        "비고(논문 등 연구 참고 사항)": null,
        "출처(1차사료)": null,
        "_blank_1": null,
        "_layer_id": "ad_ja_points",
        "_layer_title": "행정 지명",
        "_source_file": "AD_JA_PointLayer.csv",
        "Chinese Name": "岳州府"
      }
    },
    {
      "type": "Feature",
      "geometry": {
        "type": "Point",
        "coordinates": [
          116.22,
          29.73
        ]
      },
      "properties": {
        "일련번호": "AD_JA_044",
        "한국어이름": "호구현",
        "대분류": "행정 지명(치소)",
        "소분류": "행정Lv3",
        "분류근거": "縣",
        "소속행정구역(省)": "江西",
        "소속행정구역(府/州)": "九江",
        "소속행정구역(縣)": "湖口",
        "소속행정구역(기층)": "-",
        "『표ᄒᆡ록』": "호구",
        "「서이방익사」": "-",
        "『승정원일기』": "-",
        "『일성록』": "-",
        "경도": "116.22",
        "위도": "29.73",
        "현재 위치 광역 단위": "중국_장시성",
        "현재 위치 기초 단위": "주장시_후커우현",
        "비고(논문 등 연구 참고 사항)": null,
        "출처(1차사료)": null,
        "_blank_1": null,
        "_layer_id": "ad_ja_points",
        "_layer_title": "행정 지명",
        "_source_file": "AD_JA_PointLayer.csv",
        "Chinese Name": "湖口縣"
      }
    },
    {
      "type": "Feature",
      "geometry": {
        "type": "Point",
        "coordinates": [
          117.48,
          30.66
        ]
      },
      "properties": {
        "일련번호": "AD_JA_045",
        "한국어이름": "지주부",
        "대분류": "행정 지명(치소)",
        "소분류": "행정Lv2",
        "분류근거": "府",
        "소속행정구역(省)": "安徽",
        "소속행정구역(府/州)": "池州",
        "소속행정구역(縣)": "-",
        "소속행정구역(기층)": "-",
        "『표ᄒᆡ록』": "시쥬",
        "「서이방익사」": "-",
        "『승정원일기』": "-",
        "『일성록』": "-",
        "경도": "117.48",
        "위도": "30.66",
        "현재 위치 광역 단위": "중국_안후이성",
        "현재 위치 기초 단위": "츠저우시_구이츠구",
        "비고(논문 등 연구 참고 사항)": null,
        "출처(1차사료)": null,
        "_blank_1": null,
        "_layer_id": "ad_ja_points",
        "_layer_title": "행정 지명",
        "_source_file": "AD_JA_PointLayer.csv",
        "Chinese Name": "池州府"
      }
    },
    {
      "type": "Feature",
      "geometry": {
        "type": "Point",
        "coordinates": [
          120.62,
          31.31
        ]
      },
      "properties": {
        "일련번호": "AD_JA_046",
        "한국어이름": "소주부",
        "대분류": "행정 지명(치소)",
        "소분류": "행정Lv2",
        "분류근거": "府",
        "소속행정구역(省)": "江蘇",
        "소속행정구역(府/州)": "蘇州",
        "소속행정구역(縣)": null,
        "소속행정구역(기층)": "-",
        "『표ᄒᆡ록』": "소주부",
        "「서이방익사」": "蘇州",
        "『승정원일기』": "-",
        "『일성록』": "蘇州",
        "경도": "120.62",
        "위도": "31.31",
        "현재 위치 광역 단위": "중국_장쑤성",
        "현재 위치 기초 단위": "쑤저우시_구쑤구",
        "비고(논문 등 연구 참고 사항)": null,
        "출처(1차사료)": null,
        "_blank_1": null,
        "_layer_id": "ad_ja_points",
        "_layer_title": "행정 지명",
        "_source_file": "AD_JA_PointLayer.csv",
        "Chinese Name": "蘇州府"
      }
    },
    {
      "type": "Feature",
      "geometry": {
        "type": "Point",
        "coordinates": [
          119.44,
          32.39
        ]
      },
      "properties": {
        "일련번호": "AD_JD_048",
        "한국어이름": "강도현",
        "대분류": "행정 지명(치소)",
        "소분류": "행정Lv3",
        "분류근거": "縣",
        "소속행정구역(省)": "江蘇",
        "소속행정구역(府/州)": "揚州",
        "소속행정구역(縣)": "江都",
        "소속행정구역(기층)": "-",
        "『표ᄒᆡ록』": "강동현",
        "「서이방익사」": "江都縣*",
        "『승정원일기』": "-",
        "『일성록』": "江都縣",
        "경도": "119.44",
        "위도": "32.39",
        "현재 위치 광역 단위": "중국_장쑤성",
        "현재 위치 기초 단위": "양저우시_광링구",
        "비고(논문 등 연구 참고 사항)": null,
        "출처(1차사료)": null,
        "_blank_1": null,
        "_layer_id": "ad_ja_points",
        "_layer_title": "행정 지명",
        "_source_file": "AD_JA_PointLayer.csv",
        "Chinese Name": "江都縣"
      }
    },
    {
      "type": "Feature",
      "geometry": {
        "type": "Point",
        "coordinates": [
          119.44,
          32.79
        ]
      },
      "properties": {
        "일련번호": "AD_JD_050",
        "한국어이름": "고우주",
        "대분류": "행정 지명(치소)",
        "소분류": "행정Lv3",
        "분류근거": "州",
        "소속행정구역(省)": "江蘇",
        "소속행정구역(府/州)": "揚州",
        "소속행정구역(縣)": "高郵",
        "소속행정구역(기층)": "-",
        "『표ᄒᆡ록』": "-",
        "「서이방익사」": "高郵縣",
        "『승정원일기』": "-",
        "『일성록』": "高郵下陸",
        "경도": "119.44",
        "위도": "32.79",
        "현재 위치 광역 단위": "중국_장쑤성",
        "현재 위치 기초 단위": "양저우시_가오유시",
        "비고(논문 등 연구 참고 사항)": null,
        "출처(1차사료)": null,
        "_blank_1": null,
        "_layer_id": "ad_ja_points",
        "_layer_title": "행정 지명",
        "_source_file": "AD_JA_PointLayer.csv",
        "Chinese Name": "高郵州"
      }
    },
    {
      "type": "Feature",
      "geometry": {
        "type": "Point",
        "coordinates": [
          119.31,
          33.24
        ]
      },
      "properties": {
        "일련번호": "AD_JD_051",
        "한국어이름": "보응현",
        "대분류": "행정 지명(치소)",
        "소분류": "행정Lv3",
        "분류근거": "縣",
        "소속행정구역(省)": "江蘇",
        "소속행정구역(府/州)": "揚州",
        "소속행정구역(縣)": "寶應",
        "소속행정구역(기층)": "-",
        "『표ᄒᆡ록』": "-",
        "「서이방익사」": "-",
        "『승정원일기』": "-",
        "『일성록』": "寶應縣",
        "경도": "119.31",
        "위도": "33.24",
        "현재 위치 광역 단위": "중국_장쑤성",
        "현재 위치 기초 단위": "양저우시_바오잉현",
        "비고(논문 등 연구 참고 사항)": "서이방익사 보응현 위치 오류",
        "출처(1차사료)": null,
        "_blank_1": null,
        "_layer_id": "ad_ja_points",
        "_layer_title": "행정 지명",
        "_source_file": "AD_JA_PointLayer.csv",
        "Chinese Name": "寶應縣"
      }
    },
    {
      "type": "Feature",
      "geometry": {
        "type": "Point",
        "coordinates": [
          119.02,
          33.59
        ]
      },
      "properties": {
        "일련번호": "AD_JD_052",
        "한국어이름": "회안부",
        "대분류": "행정 지명(치소)",
        "소분류": "행정Lv2",
        "분류근거": "府",
        "소속행정구역(省)": "江蘇",
        "소속행정구역(府/州)": "淮安",
        "소속행정구역(縣)": "-",
        "소속행정구역(기층)": "-",
        "『표ᄒᆡ록』": "-",
        "「서이방익사」": "懷府*/懷縣*",
        "『승정원일기』": "-",
        "『일성록』": "-",
        "경도": "119.02",
        "위도": "33.59",
        "현재 위치 광역 단위": "중국_장쑤성",
        "현재 위치 기초 단위": "화이안시_칭장푸구",
        "비고(논문 등 연구 참고 사항)": null,
        "출처(1차사료)": null,
        "_blank_1": null,
        "_layer_id": "ad_ja_points",
        "_layer_title": "행정 지명",
        "_source_file": "AD_JA_PointLayer.csv",
        "Chinese Name": "淮安府"
      }
    },
    {
      "type": "Feature",
      "geometry": {
        "type": "Point",
        "coordinates": [
          119.14,
          33.5
        ]
      },
      "properties": {
        "일련번호": "AD_JD_053",
        "한국어이름": "산양현",
        "대분류": "행정 지명(치소)",
        "소분류": "행정Lv3",
        "분류근거": "縣",
        "소속행정구역(省)": "江蘇",
        "소속행정구역(府/州)": "淮安",
        "소속행정구역(縣)": "山陽",
        "소속행정구역(기층)": "-",
        "『표ᄒᆡ록』": "-",
        "「서이방익사」": "山陽縣*",
        "『승정원일기』": "-",
        "『일성록』": "-",
        "경도": "119.14",
        "위도": "33.50",
        "현재 위치 광역 단위": "중국_장쑤성",
        "현재 위치 기초 단위": "화이안시_화이안구",
        "비고(논문 등 연구 참고 사항)": null,
        "출처(1차사료)": null,
        "_blank_1": null,
        "_layer_id": "ad_ja_points",
        "_layer_title": "행정 지명",
        "_source_file": "AD_JA_PointLayer.csv",
        "Chinese Name": "山陽縣"
      }
    },
    {
      "type": "Feature",
      "geometry": {
        "type": "Point",
        "coordinates": [
          119.02,
          33.63
        ]
      },
      "properties": {
        "일련번호": "AD_JD_055",
        "한국어이름": "왕가영진",
        "대분류": "특수행정 지명",
        "소분류": "군사시설",
        "분류근거": "鎭",
        "소속행정구역(省)": "江蘇",
        "소속행정구역(府/州)": "淮安",
        "소속행정구역(縣)": "淸河",
        "소속행정구역(기층)": "-",
        "『표ᄒᆡ록』": "왕가장",
        "「서이방익사」": "王家營*",
        "『승정원일기』": "-",
        "『일성록』": "-",
        "경도": "119.02",
        "위도": "33.63",
        "현재 위치 광역 단위": "중국_장쑤성",
        "현재 위치 기초 단위": "화이안시_화이안구",
        "비고(논문 등 연구 참고 사항)": null,
        "출처(1차사료)": null,
        "_blank_1": null,
        "_layer_id": "ad_ja_points",
        "_layer_title": "행정 지명",
        "_source_file": "AD_JA_PointLayer.csv",
        "Chinese Name": "王家營鎭"
      }
    },
    {
      "type": "Feature",
      "geometry": {
        "type": "Point",
        "coordinates": [
          118.68,
          33.7
        ]
      },
      "properties": {
        "일련번호": "AD_JD_056",
        "한국어이름": "중흥집",
        "대분류": "특수행정 지명",
        "소분류": "기타 행정/군사시설",
        "분류근거": "集",
        "소속행정구역(省)": "江蘇",
        "소속행정구역(府/州)": "淮安",
        "소속행정구역(縣)": "桃源",
        "소속행정구역(기층)": "-",
        "『표ᄒᆡ록』": "-",
        "「서이방익사」": "桃源縣*;桃源驛*",
        "『승정원일기』": "-",
        "『일성록』": "-",
        "경도": "118.68",
        "위도": "33.70",
        "현재 위치 광역 단위": "중국_장쑤성",
        "현재 위치 기초 단위": "쑤첸시_쓰양현",
        "비고(논문 등 연구 참고 사항)": "󰡔승사록󰡕 1818년 6월 25일",
        "출처(1차사료)": null,
        "_blank_1": null,
        "_layer_id": "ad_ja_points",
        "_layer_title": "행정 지명",
        "_source_file": "AD_JA_PointLayer.csv",
        "Chinese Name": "衆興集"
      }
    },
    {
      "type": "Feature",
      "geometry": {
        "type": "Point",
        "coordinates": [
          118.33,
          34.62
        ]
      },
      "properties": {
        "일련번호": "AD_JD_058",
        "한국어이름": "담성현",
        "대분류": "행정 지명(치소)",
        "소분류": "행정Lv3",
        "분류근거": "縣",
        "소속행정구역(省)": "山東",
        "소속행정구역(府/州)": "沂州",
        "소속행정구역(縣)": "郯城",
        "소속행정구역(기층)": "-",
        "『표ᄒᆡ록』": "산동성지경",
        "「서이방익사」": "郯城縣",
        "『승정원일기』": "山東省界",
        "『일성록』": "郯城縣",
        "경도": "118.33",
        "위도": "34.62",
        "현재 위치 광역 단위": "중국_산둥성",
        "현재 위치 기초 단위": "린이시_탄청현",
        "비고(논문 등 연구 참고 사항)": null,
        "출처(1차사료)": null,
        "_blank_1": null,
        "_layer_id": "ad_ja_points",
        "_layer_title": "행정 지명",
        "_source_file": "AD_JA_PointLayer.csv",
        "Chinese Name": "郯城縣"
      }
    },
    {
      "type": "Feature",
      "geometry": {
        "type": "Point",
        "coordinates": [
          118.34,
          35.07
        ]
      },
      "properties": {
        "일련번호": "AD_JD_059",
        "한국어이름": "난산현",
        "대분류": "행정 지명(치소)",
        "소분류": "행정Lv3",
        "분류근거": "縣",
        "소속행정구역(省)": "山東",
        "소속행정구역(府/州)": "沂州",
        "소속행정구역(縣)": "蘭山",
        "소속행정구역(기층)": "-",
        "『표ᄒᆡ록』": "-",
        "「서이방익사」": "蘭山縣*",
        "『승정원일기』": "-",
        "『일성록』": "-",
        "경도": "118.34",
        "위도": "35.07",
        "현재 위치 광역 단위": "중국_산둥성",
        "현재 위치 기초 단위": "린이시_란샨구",
        "비고(논문 등 연구 참고 사항)": null,
        "출처(1차사료)": null,
        "_blank_1": null,
        "_layer_id": "ad_ja_points",
        "_layer_title": "행정 지명",
        "_source_file": "AD_JA_PointLayer.csv",
        "Chinese Name": "蘭山縣"
      }
    },
    {
      "type": "Feature",
      "geometry": {
        "type": "Point",
        "coordinates": [
          117.93,
          35.71
        ]
      },
      "properties": {
        "일련번호": "AD_JD_060",
        "한국어이름": "몽음현",
        "대분류": "행정 지명(치소)",
        "소분류": "행정Lv3",
        "분류근거": "縣",
        "소속행정구역(省)": "山東",
        "소속행정구역(府/州)": "沂州",
        "소속행정구역(縣)": "蒙陰",
        "소속행정구역(기층)": "-",
        "『표ᄒᆡ록』": "-",
        "「서이방익사」": "蒙陰縣*",
        "『승정원일기』": "-",
        "『일성록』": "-",
        "경도": "117.93",
        "위도": "35.71",
        "현재 위치 광역 단위": "중국_산둥성",
        "현재 위치 기초 단위": "린이시_멍인현",
        "비고(논문 등 연구 참고 사항)": null,
        "출처(1차사료)": null,
        "_blank_1": null,
        "_layer_id": "ad_ja_points",
        "_layer_title": "행정 지명",
        "_source_file": "AD_JA_PointLayer.csv",
        "Chinese Name": "蒙陰縣"
      }
    },
    {
      "type": "Feature",
      "geometry": {
        "type": "Point",
        "coordinates": [
          117.76,
          35.91
        ]
      },
      "properties": {
        "일련번호": "AD_JD_061",
        "한국어이름": "신태현",
        "대분류": "행정 지명(치소)",
        "소분류": "행정Lv3",
        "분류근거": "縣",
        "소속행정구역(省)": "山東",
        "소속행정구역(府/州)": "泰安",
        "소속행정구역(縣)": "新太",
        "소속행정구역(기층)": "-",
        "『표ᄒᆡ록』": "-",
        "「서이방익사」": "新太縣*",
        "『승정원일기』": "-",
        "『일성록』": "-",
        "경도": "117.76",
        "위도": "35.91",
        "현재 위치 광역 단위": "중국_산둥성",
        "현재 위치 기초 단위": "타이안시_신타이시",
        "비고(논문 등 연구 참고 사항)": null,
        "출처(1차사료)": null,
        "_blank_1": null,
        "_layer_id": "ad_ja_points",
        "_layer_title": "행정 지명",
        "_source_file": "AD_JA_PointLayer.csv",
        "Chinese Name": "新太縣"
      }
    },
    {
      "type": "Feature",
      "geometry": {
        "type": "Point",
        "coordinates": [
          117.13,
          36.19
        ]
      },
      "properties": {
        "일련번호": "AD_JD_062",
        "한국어이름": "태안부",
        "대분류": "행정 지명(치소)",
        "소분류": "행정Lv2",
        "분류근거": "府",
        "소속행정구역(省)": "山東",
        "소속행정구역(府/州)": "泰安",
        "소속행정구역(縣)": "-",
        "소속행정구역(기층)": "-",
        "『표ᄒᆡ록』": "-",
        "「서이방익사」": "泰安府*",
        "『승정원일기』": "-",
        "『일성록』": "-",
        "경도": "117.13",
        "위도": "36.19",
        "현재 위치 광역 단위": "중국_산둥성",
        "현재 위치 기초 단위": "타이안시_타이샨구",
        "비고(논문 등 연구 참고 사항)": null,
        "출처(1차사료)": null,
        "_blank_1": null,
        "_layer_id": "ad_ja_points",
        "_layer_title": "행정 지명",
        "_source_file": "AD_JA_PointLayer.csv",
        "Chinese Name": "泰安府"
      }
    },
    {
      "type": "Feature",
      "geometry": {
        "type": "Point",
        "coordinates": [
          117.0,
          36.65
        ]
      },
      "properties": {
        "일련번호": "AD_JD_063",
        "한국어이름": "제남부",
        "대분류": "행정 지명(치소)",
        "소분류": "행정Lv2",
        "분류근거": "府",
        "소속행정구역(省)": "山東",
        "소속행정구역(府/州)": "濟南",
        "소속행정구역(縣)": "-",
        "소속행정구역(기층)": "-",
        "『표ᄒᆡ록』": "-",
        "「서이방익사」": "濟南府*",
        "『승정원일기』": "-",
        "『일성록』": "-",
        "경도": "117.00",
        "위도": "36.65",
        "현재 위치 광역 단위": "중국_산둥성",
        "현재 위치 기초 단위": "지난시_스중구",
        "비고(논문 등 연구 참고 사항)": null,
        "출처(1차사료)": null,
        "_blank_1": null,
        "_layer_id": "ad_ja_points",
        "_layer_title": "행정 지명",
        "_source_file": "AD_JA_PointLayer.csv",
        "Chinese Name": "濟南府"
      }
    },
    {
      "type": "Feature",
      "geometry": {
        "type": "Point",
        "coordinates": [
          116.78,
          36.7
        ]
      },
      "properties": {
        "일련번호": "AD_JD_064",
        "한국어이름": "제하현",
        "대분류": "행정 지명(치소)",
        "소분류": "행정Lv3",
        "분류근거": "縣",
        "소속행정구역(省)": "山東",
        "소속행정구역(府/州)": "濟南",
        "소속행정구역(縣)": "濟河",
        "소속행정구역(기층)": "-",
        "『표ᄒᆡ록』": "-",
        "「서이방익사」": "濟河縣*",
        "『승정원일기』": "-",
        "『일성록』": "-",
        "경도": "116.78",
        "위도": "36.70",
        "현재 위치 광역 단위": "중국_산둥성",
        "현재 위치 기초 단위": "더저우시_치허현",
        "비고(논문 등 연구 참고 사항)": "제남-제하 순서 다름",
        "출처(1차사료)": null,
        "_blank_1": null,
        "_layer_id": "ad_ja_points",
        "_layer_title": "행정 지명",
        "_source_file": "AD_JA_PointLayer.csv",
        "Chinese Name": "濟河縣"
      }
    },
    {
      "type": "Feature",
      "geometry": {
        "type": "Point",
        "coordinates": [
          116.65,
          36.95
        ]
      },
      "properties": {
        "일련번호": "AD_JD_065",
        "한국어이름": "우성현",
        "대분류": "행정 지명(치소)",
        "소분류": "행정Lv3",
        "분류근거": "縣",
        "소속행정구역(省)": "山東",
        "소속행정구역(府/州)": "濟南",
        "소속행정구역(縣)": "禹城",
        "소속행정구역(기층)": "-",
        "『표ᄒᆡ록』": "-",
        "「서이방익사」": "禹城縣*",
        "『승정원일기』": "-",
        "『일성록』": "-",
        "경도": "116.65",
        "위도": "36.95",
        "현재 위치 광역 단위": "중국_산둥성",
        "현재 위치 기초 단위": "더저우시_위청시",
        "비고(논문 등 연구 참고 사항)": null,
        "출처(1차사료)": null,
        "_blank_1": null,
        "_layer_id": "ad_ja_points",
        "_layer_title": "행정 지명",
        "_source_file": "AD_JA_PointLayer.csv",
        "Chinese Name": "禹城縣"
      }
    },
    {
      "type": "Feature",
      "geometry": {
        "type": "Point",
        "coordinates": [
          116.29,
          37.45
        ]
      },
      "properties": {
        "일련번호": "AD_JD_066",
        "한국어이름": "덕주",
        "대분류": "행정 지명(치소)",
        "소분류": "행정Lv3",
        "분류근거": "州",
        "소속행정구역(省)": "山東",
        "소속행정구역(府/州)": "濟南",
        "소속행정구역(縣)": "德州",
        "소속행정구역(기층)": "-",
        "『표ᄒᆡ록』": "-",
        "「서이방익사」": "德州*",
        "『승정원일기』": "-",
        "『일성록』": "-",
        "경도": "116.29",
        "위도": "37.45",
        "현재 위치 광역 단위": "중국_산둥성",
        "현재 위치 기초 단위": "더저우시_더청구",
        "비고(논문 등 연구 참고 사항)": null,
        "출처(1차사료)": null,
        "_blank_1": null,
        "_layer_id": "ad_ja_points",
        "_layer_title": "행정 지명",
        "_source_file": "AD_JA_PointLayer.csv",
        "Chinese Name": "德州"
      }
    },
    {
      "type": "Feature",
      "geometry": {
        "type": "Point",
        "coordinates": [
          116.26,
          37.69
        ]
      },
      "properties": {
        "일련번호": "AD_JD_067",
        "한국어이름": "경주",
        "대분류": "행정 지명(치소)",
        "소분류": "행정Lv3",
        "분류근거": "州",
        "소속행정구역(省)": "直隸",
        "소속행정구역(府/州)": "河間",
        "소속행정구역(縣)": "景州",
        "소속행정구역(기층)": "-",
        "『표ᄒᆡ록』": "-",
        "「서이방익사」": "景州*",
        "『승정원일기』": "-",
        "『일성록』": "-",
        "경도": "116.26",
        "위도": "37.69",
        "현재 위치 광역 단위": "중국_허베이성",
        "현재 위치 기초 단위": "헝수이시_징현",
        "비고(논문 등 연구 참고 사항)": null,
        "출처(1차사료)": null,
        "_blank_1": null,
        "_layer_id": "ad_ja_points",
        "_layer_title": "행정 지명",
        "_source_file": "AD_JA_PointLayer.csv",
        "Chinese Name": "景州"
      }
    },
    {
      "type": "Feature",
      "geometry": {
        "type": "Point",
        "coordinates": [
          116.14,
          37.87
        ]
      },
      "properties": {
        "일련번호": "AD_JD_068",
        "한국어이름": "부성현",
        "대분류": "행정 지명(치소)",
        "소분류": "행정Lv3",
        "분류근거": "縣",
        "소속행정구역(省)": "直隸",
        "소속행정구역(府/州)": "河間",
        "소속행정구역(縣)": "阜城",
        "소속행정구역(기층)": "-",
        "『표ᄒᆡ록』": "-",
        "「서이방익사」": "-",
        "『승정원일기』": "-",
        "『일성록』": "-",
        "경도": "116.14",
        "위도": "37.87",
        "현재 위치 광역 단위": "중국_허베이성",
        "현재 위치 기초 단위": "헝수이시_푸청현",
        "비고(논문 등 연구 참고 사항)": "『河北公路史』",
        "출처(1차사료)": null,
        "_blank_1": null,
        "_layer_id": "ad_ja_points",
        "_layer_title": "행정 지명",
        "_source_file": "AD_JA_PointLayer.csv",
        "Chinese Name": "阜城縣"
      }
    },
    {
      "type": "Feature",
      "geometry": {
        "type": "Point",
        "coordinates": [
          116.29,
          38.02
        ]
      },
      "properties": {
        "일련번호": "AD_JD_069",
        "한국어이름": "교하현",
        "대분류": "행정 지명(치소)",
        "소분류": "행정Lv3",
        "분류근거": "縣",
        "소속행정구역(省)": "直隸",
        "소속행정구역(府/州)": "河間",
        "소속행정구역(縣)": "交河",
        "소속행정구역(기층)": "-",
        "『표ᄒᆡ록』": "-",
        "「서이방익사」": "-",
        "『승정원일기』": "-",
        "『일성록』": "-",
        "경도": "116.29",
        "위도": "38.02",
        "현재 위치 광역 단위": "중국_허베이성",
        "현재 위치 기초 단위": "창저우시_보터우시",
        "비고(논문 등 연구 참고 사항)": "『河北公路史』",
        "출처(1차사료)": null,
        "_blank_1": null,
        "_layer_id": "ad_ja_points",
        "_layer_title": "행정 지명",
        "_source_file": "AD_JA_PointLayer.csv",
        "Chinese Name": "交河縣"
      }
    },
    {
      "type": "Feature",
      "geometry": {
        "type": "Point",
        "coordinates": [
          116.11,
          38.19
        ]
      },
      "properties": {
        "일련번호": "AD_JD_070",
        "한국어이름": "헌현",
        "대분류": "행정 지명(치소)",
        "소분류": "행정Lv3",
        "분류근거": "縣",
        "소속행정구역(省)": "直隸",
        "소속행정구역(府/州)": "河間",
        "소속행정구역(縣)": "獻",
        "소속행정구역(기층)": "-",
        "『표ᄒᆡ록』": "-",
        "「서이방익사」": "-",
        "『승정원일기』": "-",
        "『일성록』": "-",
        "경도": "116.11",
        "위도": "38.19",
        "현재 위치 광역 단위": "중국_허베이성",
        "현재 위치 기초 단위": "창저우시_셴현",
        "비고(논문 등 연구 참고 사항)": "『河北公路史』",
        "출처(1차사료)": null,
        "_blank_1": null,
        "_layer_id": "ad_ja_points",
        "_layer_title": "행정 지명",
        "_source_file": "AD_JA_PointLayer.csv",
        "Chinese Name": "獻縣"
      }
    },
    {
      "type": "Feature",
      "geometry": {
        "type": "Point",
        "coordinates": [
          116.09,
          38.44
        ]
      },
      "properties": {
        "일련번호": "AD_JD_071",
        "한국어이름": "하간부",
        "대분류": "행정 지명(치소)",
        "소분류": "행정Lv2",
        "분류근거": "府",
        "소속행정구역(省)": "直隸",
        "소속행정구역(府/州)": "河間",
        "소속행정구역(縣)": "河間",
        "소속행정구역(기층)": "-",
        "『표ᄒᆡ록』": "하간녁",
        "「서이방익사」": "河間縣*",
        "『승정원일기』": "-",
        "『일성록』": "-",
        "경도": "116.09",
        "위도": "38.44",
        "현재 위치 광역 단위": "-",
        "현재 위치 기초 단위": "-",
        "비고(논문 등 연구 참고 사항)": null,
        "출처(1차사료)": null,
        "_blank_1": null,
        "_layer_id": "ad_ja_points",
        "_layer_title": "행정 지명",
        "_source_file": "AD_JA_PointLayer.csv",
        "Chinese Name": "河間府"
      }
    },
    {
      "type": "Feature",
      "geometry": {
        "type": "Point",
        "coordinates": [
          116.09,
          38.71
        ]
      },
      "properties": {
        "일련번호": "AD_JD_072",
        "한국어이름": "임구현",
        "대분류": "행정 지명(치소)",
        "소분류": "행정Lv3",
        "분류근거": "縣",
        "소속행정구역(省)": "直隸",
        "소속행정구역(府/州)": "河間",
        "소속행정구역(縣)": "任丘",
        "소속행정구역(기층)": "-",
        "『표ᄒᆡ록』": "-",
        "「서이방익사」": "-",
        "『승정원일기』": "-",
        "『일성록』": "-",
        "경도": "116.09",
        "위도": "38.71",
        "현재 위치 광역 단위": "중국_허베이성",
        "현재 위치 기초 단위": "창저우시_런추시",
        "비고(논문 등 연구 참고 사항)": "『河北公路史』",
        "출처(1차사료)": null,
        "_blank_1": null,
        "_layer_id": "ad_ja_points",
        "_layer_title": "행정 지명",
        "_source_file": "AD_JA_PointLayer.csv",
        "Chinese Name": "任丘縣"
      }
    },
    {
      "type": "Feature",
      "geometry": {
        "type": "Point",
        "coordinates": [
          116.09,
          38.98
        ]
      },
      "properties": {
        "일련번호": "AD_JD_073",
        "한국어이름": "웅현",
        "대분류": "행정 지명(치소)",
        "소분류": "행정Lv3",
        "분류근거": "縣",
        "소속행정구역(省)": "直隸",
        "소속행정구역(府/州)": "保定",
        "소속행정구역(縣)": "雄",
        "소속행정구역(기층)": "-",
        "『표ᄒᆡ록』": "-",
        "「서이방익사」": "-",
        "『승정원일기』": "-",
        "『일성록』": "-",
        "경도": "116.09",
        "위도": "38.98",
        "현재 위치 광역 단위": "중국_허베이성",
        "현재 위치 기초 단위": "바오딩시_슝현",
        "비고(논문 등 연구 참고 사항)": "『河北公路史』",
        "출처(1차사료)": null,
        "_blank_1": null,
        "_layer_id": "ad_ja_points",
        "_layer_title": "행정 지명",
        "_source_file": "AD_JA_PointLayer.csv",
        "Chinese Name": "雄縣"
      }
    },
    {
      "type": "Feature",
      "geometry": {
        "type": "Point",
        "coordinates": [
          115.99,
          39.25
        ]
      },
      "properties": {
        "일련번호": "AD_JD_074",
        "한국어이름": "신성현",
        "대분류": "행정 지명(치소)",
        "소분류": "행정Lv3",
        "분류근거": "縣",
        "소속행정구역(省)": "直隸",
        "소속행정구역(府/州)": "保定",
        "소속행정구역(縣)": "新城",
        "소속행정구역(기층)": "-",
        "『표ᄒᆡ록』": "-",
        "「서이방익사」": "-",
        "『승정원일기』": "-",
        "『일성록』": "-",
        "경도": "115.99",
        "위도": "39.25",
        "현재 위치 광역 단위": "중국_허베이성",
        "현재 위치 기초 단위": "바오딩시_가오베이뎬시",
        "비고(논문 등 연구 참고 사항)": "『河北公路史』",
        "출처(1차사료)": null,
        "_blank_1": null,
        "_layer_id": "ad_ja_points",
        "_layer_title": "행정 지명",
        "_source_file": "AD_JA_PointLayer.csv",
        "Chinese Name": "新城縣"
      }
    },
    {
      "type": "Feature",
      "geometry": {
        "type": "Point",
        "coordinates": [
          115.97,
          39.49
        ]
      },
      "properties": {
        "일련번호": "AD_JD_075",
        "한국어이름": "탁주",
        "대분류": "행정 지명(치소)",
        "소분류": "행정Lv3",
        "분류근거": "州",
        "소속행정구역(省)": "直隸",
        "소속행정구역(府/州)": "順天",
        "소속행정구역(縣)": "涿州",
        "소속행정구역(기층)": "-",
        "『표ᄒᆡ록』": "-",
        "「서이방익사」": "涿州*",
        "『승정원일기』": "-",
        "『일성록』": "-",
        "경도": "115.97",
        "위도": "39.49",
        "현재 위치 광역 단위": "중국_허베이성",
        "현재 위치 기초 단위": "바오딩시_줘저우시",
        "비고(논문 등 연구 참고 사항)": null,
        "출처(1차사료)": null,
        "_blank_1": null,
        "_layer_id": "ad_ja_points",
        "_layer_title": "행정 지명",
        "_source_file": "AD_JA_PointLayer.csv",
        "Chinese Name": "涿州"
      }
    },
    {
      "type": "Feature",
      "geometry": {
        "type": "Point",
        "coordinates": [
          116.14,
          39.74
        ]
      },
      "properties": {
        "일련번호": "AD_JD_076",
        "한국어이름": "양향현",
        "대분류": "행정 지명(치소)",
        "소분류": "행정Lv3",
        "분류근거": "縣",
        "소속행정구역(省)": "直隸",
        "소속행정구역(府/州)": "順天",
        "소속행정구역(縣)": "良鄕",
        "소속행정구역(기층)": "-",
        "『표ᄒᆡ록』": "-",
        "「서이방익사」": "娘女+耶縣*",
        "『승정원일기』": "-",
        "『일성록』": "-",
        "경도": "116.14",
        "위도": "39.74",
        "현재 위치 광역 단위": "중국_베이징시",
        "현재 위치 기초 단위": "팡산구",
        "비고(논문 등 연구 참고 사항)": null,
        "출처(1차사료)": null,
        "_blank_1": null,
        "_layer_id": "ad_ja_points",
        "_layer_title": "행정 지명",
        "_source_file": "AD_JA_PointLayer.csv",
        "Chinese Name": "良鄕縣"
      }
    },
    {
      "type": "Feature",
      "geometry": {
        "type": "Point",
        "coordinates": [
          116.39,
          39.92
        ]
      },
      "properties": {
        "일련번호": "AD_JD_077",
        "한국어이름": "북경",
        "대분류": "행정 지명(치소)",
        "소분류": "행정Lv0",
        "분류근거": "京",
        "소속행정구역(省)": "直隸",
        "소속행정구역(府/州)": "順天",
        "소속행정구역(縣)": "京師",
        "소속행정구역(기층)": "-",
        "『표ᄒᆡ록』": "연경",
        "「서이방익사」": "燕京/北京*",
        "『승정원일기』": "北京",
        "『일성록』": "北京",
        "경도": "116.39",
        "위도": "39.92",
        "현재 위치 광역 단위": "중국_베이징시",
        "현재 위치 기초 단위": "시청구",
        "비고(논문 등 연구 참고 사항)": null,
        "출처(1차사료)": null,
        "_blank_1": null,
        "_layer_id": "ad_ja_points",
        "_layer_title": "행정 지명",
        "_source_file": "AD_JA_PointLayer.csv",
        "Chinese Name": "北京"
      }
    }
  ]
}
