{
  "type": "FeatureCollection",
  "features": [
    {
      "type": "Feature",
      "geometry": {
        "type": "Point",
        "coordinates": [
          120.21,
          23.0
        ]
      },
      "properties": {
        "일련번호": "HG_001",
        "한자이름": "大北門(臺灣府)",
        "한국어이름": "대북문(대만부)",
        "대분류": "인문 지명",
        "소분류": "건축물",
        "분류근거": "門",
        "소속행정구역(省)": "福建",
        "소속행정구역(府/州)": "臺灣",
        "소속행정구역(縣)": "臺灣",
        "소속행정구역(기층)": "澎湖",
        "『표ᄒᆡ록』": null,
        "「서이방익사」": null,
        "『승정원일기』": null,
        "『일성록』": null,
        "경도": "120.21",
        "위도": "23.00",
        "현재 위치 광역 단위": "대만",
        "현재 위치 기초 단위": "타이난시_베이구",
        "출처(논문)": null,
        "출처(1차사료)": null,
        "_blank_1": null,
        "_layer_id": "hg_points",
        "_layer_title": "인문 지명",
        "_source_file": "HG_PointLayer.csv"
      }
    },
    {
      "type": "Feature",
      "geometry": {
        "type": "Point",
        "coordinates": [
          118.15,
          24.74
        ]
      },
      "properties": {
        "일련번호": "HG_002",
        "한자이름": "同安縣學",
        "한국어이름": "동안현학",
        "대분류": "인문 지명",
        "소분류": "교육시설",
        "분류근거": "縣學",
        "소속행정구역(省)": "福建",
        "소속행정구역(府/州)": "泉州",
        "소속행정구역(縣)": "同安",
        "소속행정구역(기층)": "-",
        "『표ᄒᆡ록』": "주자의 서원/자양서원/향불사",
        "「서이방익사」": "紫陽書院/高士軒",
        "『승정원일기』": "紫陽書院",
        "『일성록』": "-",
        "경도": "118.15",
        "위도": "24.74",
        "현재 위치 광역 단위": "중국_푸젠성",
        "현재 위치 기초 단위": "샤먼시_퉁안구",
        "출처(논문)": "남호현, 2021a, 108~113",
        "출처(1차사료)": null,
        "_blank_1": null,
        "_layer_id": "hg_points",
        "_layer_title": "인문 지명",
        "_source_file": "HG_PointLayer.csv"
      }
    },
    {
      "type": "Feature",
      "geometry": {
        "type": "Point",
        "coordinates": [
          119.3,
          26.09
        ]
      },
      "properties": {
        "일련번호": "HG_003",
        "한자이름": "法海寺",
        "한국어이름": "법해사",
        "대분류": "인문 지명",
        "소분류": "종교시설(사찰)",
        "분류근거": "寺",
        "소속행정구역(省)": "福建",
        "소속행정구역(府/州)": "福州",
        "소속행정구역(縣)": "閩",
        "소속행정구역(기층)": "-",
        "『표ᄒᆡ록』": "법ᄒᆡᄉᆞ/나산당",
        "「서이방익사」": "法海寺",
        "『승정원일기』": "法海寺",
        "『일성록』": "法海寺",
        "경도": "119.30",
        "위도": "26.09",
        "현재 위치 광역 단위": "중국_푸젠성",
        "현재 위치 기초 단위": "푸저우시_구러우구",
        "출처(논문)": "법해사 내 나산당",
        "출처(1차사료)": null,
        "_blank_1": null,
        "_layer_id": "hg_points",
        "_layer_title": "인문 지명",
        "_source_file": "HG_PointLayer.csv"
      }
    },
    {
      "type": "Feature",
      "geometry": {
        "type": "Point",
        "coordinates": [
          119.65,
          29.7
        ]
      },
      "properties": {
        "일련번호": "HG_005",
        "한자이름": "釣臺",
        "한국어이름": "조대",
        "대분류": "인문 지명",
        "소분류": "건축물",
        "분류근거": "釣臺",
        "소속행정구역(省)": "浙江",
        "소속행정구역(府/州)": "嚴州",
        "소속행정구역(縣)": "桐盧",
        "소속행정구역(기층)": "-",
        "『표ᄒᆡ록』": "엄ᄌᆞ릉조ᄃᆡ",
        "「서이방익사」": "子陵臺/子陵祠",
        "『승정원일기』": "子陵釣臺",
        "『일성록』": "嚴子陵釣臺",
        "경도": "119.65",
        "위도": "29.70",
        "현재 위치 광역 단위": "중국_저장성",
        "현재 위치 기초 단위": "항저우시_퉁루현",
        "출처(논문)": "󰡔표ᄒᆡ록󰡕은 건덕현으로 소개",
        "출처(1차사료)": null,
        "_blank_1": null,
        "_layer_id": "hg_points",
        "_layer_title": "인문 지명",
        "_source_file": "HG_PointLayer.csv"
      }
    },
    {
      "type": "Feature",
      "geometry": {
        "type": "Point",
        "coordinates": [
          120.14,
          30.31
        ]
      },
      "properties": {
        "일련번호": "HG_006",
        "한자이름": "大善寺",
        "한국어이름": "대선사",
        "대분류": "인문 지명",
        "소분류": "종교시설(사찰)",
        "분류근거": "寺",
        "소속행정구역(省)": "浙江",
        "소속행정구역(府/州)": "杭州",
        "소속행정구역(縣)": "仁和",
        "소속행정구역(기층)": "-",
        "『표ᄒᆡ록』": "ᄃᆡ션ᄉᆞ",
        "「서이방익사」": "大善寺",
        "『승정원일기』": "大善寺",
        "『일성록』": "大善寺",
        "경도": "120.14",
        "위도": "30.31",
        "현재 위치 광역 단위": "중국_저장성",
        "현재 위치 기초 단위": "항저우시_궁수구",
        "출처(논문)": null,
        "출처(1차사료)": null,
        "_blank_1": null,
        "_layer_id": "hg_points",
        "_layer_title": "인문 지명",
        "_source_file": "HG_PointLayer.csv"
      }
    },
    {
      "type": "Feature",
      "geometry": {
        "type": "Point",
        "coordinates": [
          120.49,
          31.27
        ]
      },
      "properties": {
        "일련번호": "HG_007",
        "한자이름": "姑蘇臺",
        "한국어이름": "고소대",
        "대분류": "인문 지명",
        "소분류": "건축물",
        "분류근거": "臺",
        "소속행정구역(省)": "江蘇",
        "소속행정구역(府/州)": "蘇州",
        "소속행정구역(縣)": "-",
        "소속행정구역(기층)": "-",
        "『표ᄒᆡ록』": "-",
        "「서이방익사」": "姑蘇臺",
        "『승정원일기』": "姑蘇臺",
        "『일성록』": "-",
        "경도": "120.49",
        "위도": "31.27",
        "현재 위치 광역 단위": "중국_장쑤성",
        "현재 위치 기초 단위": "쑤저우시_우종구",
        "출처(논문)": null,
        "출처(1차사료)": null,
        "_blank_1": null,
        "_layer_id": "hg_points",
        "_layer_title": "인문 지명",
        "_source_file": "HG_PointLayer.csv"
      }
    },
    {
      "type": "Feature",
      "geometry": {
        "type": "Point",
        "coordinates": [
          120.58,
          31.34
        ]
      },
      "properties": {
        "일련번호": "HG_008",
        "한자이름": "虎邱寺",
        "한국어이름": "호구사",
        "대분류": "인문 지명",
        "소분류": "종교시설(사찰)",
        "분류근거": "寺",
        "소속행정구역(省)": "江蘇",
        "소속행정구역(府/州)": "蘇州",
        "소속행정구역(縣)": "-",
        "소속행정구역(기층)": "-",
        "『표ᄒᆡ록』": "호구ᄉᆞ",
        "「서이방익사」": "虎邱寺",
        "『승정원일기』": "-",
        "『일성록』": "-",
        "경도": "120.58",
        "위도": "31.34",
        "현재 위치 광역 단위": "중국_장쑤성",
        "현재 위치 기초 단위": "쑤저우시_구쑤구",
        "출처(논문)": null,
        "출처(1차사료)": null,
        "_blank_1": null,
        "_layer_id": "hg_points",
        "_layer_title": "인문 지명",
        "_source_file": "HG_PointLayer.csv"
      }
    },
    {
      "type": "Feature",
      "geometry": {
        "type": "Point",
        "coordinates": [
          120.56,
          31.31
        ]
      },
      "properties": {
        "일련번호": "HG_009",
        "한자이름": "寒山寺",
        "한국어이름": "한산사",
        "대분류": "인문 지명",
        "소분류": "종교시설(사찰)",
        "분류근거": "寺",
        "소속행정구역(省)": "江蘇",
        "소속행정구역(府/州)": "蘇州",
        "소속행정구역(縣)": null,
        "소속행정구역(기층)": "-",
        "『표ᄒᆡ록』": "한산사",
        "「서이방익사」": "寒山寺",
        "『승정원일기』": "寒山寺",
        "『일성록』": "寒山寺",
        "경도": "120.56",
        "위도": "31.31",
        "현재 위치 광역 단위": "중국_장쑤성",
        "현재 위치 기초 단위": "쑤저우시_구쑤구",
        "출처(논문)": null,
        "출처(1차사료)": null,
        "_blank_1": null,
        "_layer_id": "hg_points",
        "_layer_title": "인문 지명",
        "_source_file": "HG_PointLayer.csv"
      }
    },
    {
      "type": "Feature",
      "geometry": {
        "type": "Point",
        "coordinates": [
          119.41,
          32.22
        ]
      },
      "properties": {
        "일련번호": "HG_010",
        "한자이름": "金山寺",
        "한국어이름": "금산사",
        "대분류": "인문 지명",
        "소분류": "종교시설(사찰)",
        "분류근거": "寺",
        "소속행정구역(省)": "江蘇",
        "소속행정구역(府/州)": "揚州",
        "소속행정구역(縣)": "江都",
        "소속행정구역(기층)": "-",
        "『표ᄒᆡ록』": "금산사",
        "「서이방익사」": "金山寺",
        "『승정원일기』": "金山寺",
        "『일성록』": "金山寺",
        "경도": "119.41",
        "위도": "32.22",
        "현재 위치 광역 단위": "중국_장쑤성",
        "현재 위치 기초 단위": "전장시_룬저우구",
        "출처(논문)": "금산사 소속 확인",
        "출처(1차사료)": null,
        "_blank_1": "??? 금산사가 각주 86에 있는 양주 금산사인지? 현재 금산사의 지명이 남아있는 곳으로 양주금산사로 불릴법한 곳은 진강시에 있는 금산풍경구로, 청대 부경계도에서 보면 진강부에 속해있기는 하지만 하천을 경계로 양주부와 만나는 곳에 위치. 지도에도 그 위치로 비정",
        "_layer_id": "hg_points",
        "_layer_title": "인문 지명",
        "_source_file": "HG_PointLayer.csv"
      }
    }
  ]
}