{
  "type": "FeatureCollection",
  "features": [
    {
      "type": "Feature",
      "geometry": {
        "type": "Point",
        "coordinates": [
          118.49,
          27.89
        ]
      },
      "properties": {
        "일련번호": "MS_001",
        "한자이름": "西陽嶺",
        "한국어이름": "서양령",
        "대분류": "산계 지명",
        "소분류": "고개",
        "분류근거": "嶺",
        "소속행정구역(省)": "福建",
        "소속행정구역(府/州)": "建寧",
        "소속행정구역(縣)": "浦城",
        "소속행정구역(기층)": "-",
        "『표ᄒᆡ록』": "서양녕",
        "「서이방익사」": "西陽嶺",
        "『승정원일기』": "西陽嶺",
        "『일성록』": "-",
        "경도": "118.49",
        "위도": "27.89",
        "현재 위치 광역 단위": "중국_푸젠성",
        "현재 위치 기초 단위": "난핑시_푸청현",
        "출처(논문)": "권무일, 2020, 179쪽",
        "출처(1차사료)": "「浦城山川城池之圖」, 『光緖續修浦城縣志』, 1~2쪽.",
        "_blank_1": "현재 잔존 지명",
        "_layer_id": "mg_points",
        "_layer_title": "산계 지명",
        "_source_file": "MG_PointLayer.csv"
      }
    },
    {
      "type": "Feature",
      "geometry": {
        "type": "Point",
        "coordinates": [
          118.51,
          28.36
        ]
      },
      "properties": {
        "일련번호": "MS_002",
        "한자이름": "仙霞嶺",
        "한국어이름": "선하령",
        "대분류": "산계 지명",
        "소분류": "고개",
        "분류근거": "嶺",
        "소속행정구역(省)": "浙江",
        "소속행정구역(府/州)": "衢州",
        "소속행정구역(縣)": "江山",
        "소속행정구역(기층)": "-",
        "『표ᄒᆡ록』": "현무영",
        "「서이방익사」": "仙霞嶺",
        "『승정원일기』": "-",
        "『일성록』": "-",
        "경도": "118.51",
        "위도": "28.36",
        "현재 위치 광역 단위": "중국_저장성",
        "현재 위치 기초 단위": "취저우시_장산시",
        "출처(논문)": null,
        "출처(1차사료)": null,
        "_blank_1": "현재 잔존 지명",
        "_layer_id": "mg_points",
        "_layer_title": "산계 지명",
        "_source_file": "MG_PointLayer.csv"
      }
    },
    {
      "type": "Feature",
      "geometry": {
        "type": "Point",
        "coordinates": [
          119.17,
          29.23
        ]
      },
      "properties": {
        "일련번호": "MS_003",
        "한자이름": "梅嶺",
        "한국어이름": "매령",
        "대분류": "산계 지명",
        "소분류": "고개",
        "분류근거": "嶺",
        "소속행정구역(省)": "浙江",
        "소속행정구역(府/州)": "嚴州",
        "소속행정구역(縣)": "壽昌",
        "소속행정구역(기층)": "-",
        "『표ᄒᆡ록』": "매령",
        "「서이방익사」": "-",
        "『승정원일기』": "-",
        "『일성록』": "-",
        "경도": "119.17",
        "위도": "29.23",
        "현재 위치 광역 단위": "중국_저장성",
        "현재 위치 기초 단위": "항저우시_젠더시",
        "출처(논문)": "남호현, 2021a, 120쪽",
        "출처(1차사료)": null,
        "_blank_1": null,
        "_layer_id": "mg_points",
        "_layer_title": "산계 지명",
        "_source_file": "MG_PointLayer.csv"
      }
    }
  ]
}