{
  "type": "FeatureCollection",
  "features": [
    {
      "type": "Feature",
      "geometry": {
        "type": "Point",
        "coordinates": [
          118.67,
          24.96
        ]
      },
      "properties": {
        "일련번호": "TS_001",
        "한국어이름": "낙양교",
        "대분류": "교통 지명",
        "소분류": "교량",
        "분류근거": "橋",
        "소속행정구역(省)": "福建",
        "소속행정구역(府/州)": "泉州",
        "소속행정구역(縣)": "惠安",
        "소속행정구역(기층)": "-",
        "『표ᄒᆡ록』": "돌다리",
        "「서이방익사」": "大虹橋/洛陽橋/萬安橋",
        "『승정원일기』": "五十里石橋",
        "『일성록』": "-",
        "경도": "118.67",
        "위도": "24.96",
        "현재 위치 광역 단위": "중국_푸젠성",
        "현재 위치 기초 단위": "취안저우시_뤄장구",
        "비고": null,
        "출처(1차사료)": null,
        "_blank_1": null,
        "_layer_id": "tg_points",
        "_layer_title": "교통 지명",
        "_source_file": "TG_PointLayer.csv",
        "Chinese Name": "洛陽橋"
      }
    },
    {
      "type": "Feature",
      "geometry": {
        "type": "Point",
        "coordinates": [
          119.15,
          26.12
        ]
      },
      "properties": {
        "일련번호": "TS_002",
        "한국어이름": "황진교",
        "대분류": "교통 지명",
        "소분류": "교량",
        "분류근거": "橋",
        "소속행정구역(省)": "-",
        "소속행정구역(府/州)": "-",
        "소속행정구역(縣)": "-",
        "소속행정구역(기층)": "-",
        "『표ᄒᆡ록』": "황진교",
        "「서이방익사」": "黃津橋",
        "『승정원일기』": "黃津橋",
        "『일성록』": "黃橋江",
        "경도": "119.15",
        "위도": "26.12",
        "현재 위치 광역 단위": "중국_푸젠성",
        "현재 위치 기초 단위": "푸저우시_민허우현",
        "비고": "위치를 확인할 수 있는 문헌 기록은 존재하지 않음. 다만 복건성 서문으로부터 40여 리 떨어진 곳에 위치하고, 이 위치부터 배를 타고 이동했다는 『표해록』 및 「서이방익사」의 기록을 참고하여 위치 비정.",
        "출처(1차사료)": null,
        "_blank_1": null,
        "_layer_id": "tg_points",
        "_layer_title": "교통 지명",
        "_source_file": "TG_PointLayer.csv",
        "Chinese Name": "黃津橋"
      }
    },
    {
      "type": "Feature",
      "geometry": {
        "type": "Point",
        "coordinates": [
          118.68,
          26.43
        ]
      },
      "properties": {
        "일련번호": "TS_003",
        "한국어이름": "황전역",
        "대분류": "교통 지명",
        "소분류": "역참",
        "분류근거": "驛",
        "소속행정구역(省)": "福建",
        "소속행정구역(府/州)": "延平",
        "소속행정구역(縣)": "古田",
        "소속행정구역(기층)": "-",
        "『표ᄒᆡ록』": "황권역",
        "「서이방익사」": "黃田驛*",
        "『승정원일기』": "-",
        "『일성록』": "-",
        "경도": "118.68",
        "위도": "26.43",
        "현재 위치 광역 단위": "중국_푸젠성",
        "현재 위치 기초 단위": "닝더시_구톈현",
        "비고": null,
        "출처(1차사료)": null,
        "_blank_1": null,
        "_layer_id": "tg_points",
        "_layer_title": "교통 지명",
        "_source_file": "TG_PointLayer.csv",
        "Chinese Name": "黃田驛"
      }
    },
    {
      "type": "Feature",
      "geometry": {
        "type": "Point",
        "coordinates": [
          118.26,
          26.77
        ]
      },
      "properties": {
        "일련번호": "TS_006",
        "한국어이름": "대왕관",
        "대분류": "교통 지명",
        "소분류": "역참",
        "분류근거": "館",
        "소속행정구역(省)": "福建",
        "소속행정구역(府/州)": "延平",
        "소속행정구역(縣)": "南平",
        "소속행정구역(기층)": "-",
        "『표ᄒᆡ록』": "ᄃᆡ왕관",
        "「서이방익사」": "大王館*",
        "『승정원일기』": "-",
        "『일성록』": "-",
        "경도": "118.26",
        "위도": "26.77",
        "현재 위치 광역 단위": "중국_푸젠성",
        "현재 위치 기초 단위": "난핑시_옌핑구",
        "비고": "CHGIS 명대 역참 데이터와 『중국역사지도집』 8, 42~43쪽에 나타나는 '大橫驛'을 지칭하는 것으로 추정.",
        "출처(1차사료)": null,
        "_blank_1": null,
        "_layer_id": "tg_points",
        "_layer_title": "교통 지명",
        "_source_file": "TG_PointLayer.csv",
        "Chinese Name": "大王館"
      }
    },
    {
      "type": "Feature",
      "geometry": {
        "type": "Point",
        "coordinates": [
          118.29,
          26.91
        ]
      },
      "properties": {
        "일련번호": "TS_007",
        "한국어이름": "태평역",
        "대분류": "교통 지명",
        "소분류": "역참",
        "분류근거": "驛",
        "소속행정구역(省)": "福建",
        "소속행정구역(府/州)": "建寧",
        "소속행정구역(縣)": "建安",
        "소속행정구역(기층)": "-",
        "『표ᄒᆡ록』": "ᄐᆡ쳥관",
        "「서이방익사」": "太平馹*",
        "『승정원일기』": "-",
        "『일성록』": "-",
        "경도": "118.29",
        "위도": "26.91",
        "현재 위치 광역 단위": "중국_푸젠성",
        "현재 위치 기초 단위": "난핑시_젠어우시",
        "비고": null,
        "출처(1차사료)": null,
        "_blank_1": null,
        "_layer_id": "tg_points",
        "_layer_title": "교통 지명",
        "_source_file": "TG_PointLayer.csv",
        "Chinese Name": "太平驛"
      }
    },
    {
      "type": "Feature",
      "geometry": {
        "type": "Point",
        "coordinates": [
          118.22,
          27.17
        ]
      },
      "properties": {
        "일련번호": "TS_008",
        "한국어이름": "엽방순사",
        "대분류": "교통 지명",
        "소분류": "역참",
        "분류근거": "巡司",
        "소속행정구역(省)": "福建",
        "소속행정구역(府/州)": "建寧",
        "소속행정구역(縣)": "建安",
        "소속행정구역(기층)": "-",
        "『표ᄒᆡ록』": "엽방관",
        "「서이방익사」": "葉坊館*",
        "『승정원일기』": "-",
        "『일성록』": "-",
        "경도": "118.22",
        "위도": "27.17",
        "현재 위치 광역 단위": "중국_푸젠성",
        "현재 위치 기초 단위": "난핑시_젠어우시",
        "비고": null,
        "출처(1차사료)": null,
        "_blank_1": null,
        "_layer_id": "tg_points",
        "_layer_title": "교통 지명",
        "_source_file": "TG_PointLayer.csv",
        "Chinese Name": "葉坊巡司"
      }
    },
    {
      "type": "Feature",
      "geometry": {
        "type": "Point",
        "coordinates": [
          118.36,
          27.68
        ]
      },
      "properties": {
        "일련번호": "TS_009",
        "한국어이름": "인화역",
        "대분류": "교통 지명",
        "소분류": "역참",
        "분류근거": "驛",
        "소속행정구역(省)": "福建",
        "소속행정구역(府/州)": "建寧",
        "소속행정구역(縣)": "浦城",
        "소속행정구역(기층)": "-",
        "『표ᄒᆡ록』": "인화관",
        "「서이방익사」": "仁化館*",
        "『승정원일기』": "-",
        "『일성록』": "-",
        "경도": "118.36",
        "위도": "27.68",
        "현재 위치 광역 단위": "중국_푸젠성",
        "현재 위치 기초 단위": "난핑시_푸청현",
        "비고": null,
        "출처(1차사료)": null,
        "_blank_1": null,
        "_layer_id": "tg_points",
        "_layer_title": "교통 지명",
        "_source_file": "TG_PointLayer.csv",
        "Chinese Name": "人和驛"
      }
    },
    {
      "type": "Feature",
      "geometry": {
        "type": "Point",
        "coordinates": [
          118.52,
          28.47
        ]
      },
      "properties": {
        "일련번호": "TS_011",
        "한국어이름": "협구참",
        "대분류": "교통 지명",
        "소분류": "역참",
        "분류근거": "站",
        "소속행정구역(省)": "浙江",
        "소속행정구역(府/州)": "衢州",
        "소속행정구역(縣)": "江山",
        "소속행정구역(기층)": "-",
        "『표ᄒᆡ록』": "-",
        "「서이방익사」": "峽口站*",
        "『승정원일기』": "-",
        "『일성록』": "-",
        "경도": "118.52",
        "위도": "28.47",
        "현재 위치 광역 단위": "중국_저장성",
        "현재 위치 기초 단위": "취저우시_장산시",
        "비고": null,
        "출처(1차사료)": null,
        "_blank_1": null,
        "_layer_id": "tg_points",
        "_layer_title": "교통 지명",
        "_source_file": "TG_PointLayer.csv",
        "Chinese Name": "峽口站"
      }
    },
    {
      "type": "Feature",
      "geometry": {
        "type": "Point",
        "coordinates": [
          120.14,
          30.31
        ]
      },
      "properties": {
        "일련번호": "TS_012",
        "한국어이름": "북신관",
        "대분류": "교통 지명",
        "소분류": "관문",
        "분류근거": "關",
        "소속행정구역(省)": "浙江",
        "소속행정구역(府/州)": "杭州",
        "소속행정구역(縣)": "仁和",
        "소속행정구역(기층)": "-",
        "『표ᄒᆡ록』": "북관",
        "「서이방익사」": "北關",
        "『승정원일기』": "北關",
        "『일성록』": "-",
        "경도": "120.14",
        "위도": "30.31",
        "현재 위치 광역 단위": "중국_저장성",
        "현재 위치 기초 단위": "항저우시_궁수구",
        "비고": null,
        "출처(1차사료)": null,
        "_blank_1": null,
        "_layer_id": "tg_points",
        "_layer_title": "교통 지명",
        "_source_file": "TG_PointLayer.csv",
        "Chinese Name": "北新關"
      }
    },
    {
      "type": "Feature",
      "geometry": {
        "type": "Point",
        "coordinates": [
          117.53,
          30.72
        ]
      },
      "properties": {
        "일련번호": "TS_013",
        "한국어이름": "지구일",
        "대분류": "교통 지명",
        "소분류": "역참",
        "분류근거": "馹",
        "소속행정구역(省)": "安徽",
        "소속행정구역(府/州)": "池州",
        "소속행정구역(縣)": "貴池",
        "소속행정구역(기층)": "-",
        "『표ᄒᆡ록』": "-",
        "「서이방익사」": "-",
        "『승정원일기』": "-",
        "『일성록』": "-",
        "경도": "117.53",
        "위도": "30.72",
        "현재 위치 광역 단위": "중국_안후이성",
        "현재 위치 기초 단위": "츠저우시_구이츠구",
        "비고": "󰡔周行備覽󰡕",
        "출처(1차사료)": null,
        "_blank_1": null,
        "_layer_id": "tg_points",
        "_layer_title": "교통 지명",
        "_source_file": "TG_PointLayer.csv",
        "Chinese Name": "池口馹"
      }
    },
    {
      "type": "Feature",
      "geometry": {
        "type": "Point",
        "coordinates": [
          118.41,
          34.89
        ]
      },
      "properties": {
        "일련번호": "TS_014",
        "한국어이름": "이가장역",
        "대분류": "교통 지명",
        "소분류": "역참",
        "분류근거": "驛",
        "소속행정구역(省)": "山東",
        "소속행정구역(府/州)": "沂州",
        "소속행정구역(縣)": "蘭山",
        "소속행정구역(기층)": "-",
        "『표ᄒᆡ록』": "-",
        "「서이방익사」": "李家庄*",
        "『승정원일기』": "-",
        "『일성록』": "-",
        "경도": "118.41",
        "위도": "34.89",
        "현재 위치 광역 단위": "중국_산둥성",
        "현재 위치 기초 단위": "린이시_탄청현",
        "비고": null,
        "출처(1차사료)": null,
        "_blank_1": null,
        "_layer_id": "tg_points",
        "_layer_title": "교통 지명",
        "_source_file": "TG_PointLayer.csv",
        "Chinese Name": "李家庄驛"
      }
    },
    {
      "type": "Feature",
      "geometry": {
        "type": "Point",
        "coordinates": [
          118.31,
          35.34
        ]
      },
      "properties": {
        "일련번호": "TS_016",
        "한국어이름": "서공점역",
        "대분류": "교통 지명",
        "소분류": "역참",
        "분류근거": "驛",
        "소속행정구역(省)": "山東",
        "소속행정구역(府/州)": "沂州",
        "소속행정구역(縣)": "蘭山",
        "소속행정구역(기층)": "-",
        "『표ᄒᆡ록』": "-",
        "「서이방익사」": "徐公店*",
        "『승정원일기』": "-",
        "『일성록』": "-",
        "경도": "118.31",
        "위도": "35.34",
        "현재 위치 광역 단위": "중국_산둥성",
        "현재 위치 기초 단위": "린이시_이난현",
        "비고": null,
        "출처(1차사료)": null,
        "_blank_1": null,
        "_layer_id": "tg_points",
        "_layer_title": "교통 지명",
        "_source_file": "TG_PointLayer.csv",
        "Chinese Name": "徐公店驛"
      }
    },
    {
      "type": "Feature",
      "geometry": {
        "type": "Point",
        "coordinates": [
          117.53,
          35.99
        ]
      },
      "properties": {
        "일련번호": "TS_018",
        "한국어이름": "양류점",
        "대분류": "교통 지명",
        "소분류": "역참",
        "분류근거": "店",
        "소속행정구역(省)": "山東",
        "소속행정구역(府/州)": "泰安",
        "소속행정구역(縣)": "新太",
        "소속행정구역(기층)": "-",
        "『표ᄒᆡ록』": "-",
        "「서이방익사」": "楊柳店*",
        "『승정원일기』": "-",
        "『일성록』": "-",
        "경도": "117.53",
        "위도": "35.99",
        "현재 위치 광역 단위": "중국_산둥성",
        "현재 위치 기초 단위": "타이안시_신타이시",
        "비고": null,
        "출처(1차사료)": null,
        "_blank_1": null,
        "_layer_id": "tg_points",
        "_layer_title": "교통 지명",
        "_source_file": "TG_PointLayer.csv",
        "Chinese Name": "羊流店"
      }
    },
    {
      "type": "Feature",
      "geometry": {
        "type": "Point",
        "coordinates": [
          116.94,
          36.3
        ]
      },
      "properties": {
        "일련번호": "TS_019",
        "한국어이름": "장성역",
        "대분류": "교통 지명",
        "소분류": "역참",
        "분류근거": "驛",
        "소속행정구역(省)": "山東",
        "소속행정구역(府/州)": "濟南",
        "소속행정구역(縣)": "長淸",
        "소속행정구역(기층)": "-",
        "『표ᄒᆡ록』": "-",
        "「서이방익사」": "長城館*",
        "『승정원일기』": "-",
        "『일성록』": "-",
        "경도": "116.94",
        "위도": "36.30",
        "현재 위치 광역 단위": "중국_산둥성",
        "현재 위치 기초 단위": "지난시_창칭구",
        "비고": null,
        "출처(1차사료)": null,
        "_blank_1": null,
        "_layer_id": "tg_points",
        "_layer_title": "교통 지명",
        "_source_file": "TG_PointLayer.csv",
        "Chinese Name": "長城驛"
      }
    }
  ]
}