{
  "type": "FeatureCollection",
  "features": [
    {
      "type": "Feature",
      "geometry": {
        "type": "Point",
        "coordinates": [
          116.19,
          29.83
        ]
      },
      "properties": {
        "일련번호": "WS_001",
        "한국어이름": "팔리강",
        "대분류": "수계 지명",
        "소분류": "하천",
        "분류근거": "江",
        "소속행정구역(省)": "江西",
        "소속행정구역(府/州)": "九江",
        "소속행정구역(縣)": "-",
        "소속행정구역(기층)": "-",
        "『표ᄒᆡ록』": "-",
        "「서이방익사」": "-",
        "『승정원일기』": "-",
        "『일성록』": "-",
        "경도": "116.19",
        "위도": "29.83",
        "현재 위치 광역 단위": "중국_장시성",
        "현재 위치 기초 단위": "주장시_차이쌍구",
        "출처(논문)": "󰡔周行備覽󰡕 / 호구현 건너편",
        "출처(1차사료)": null,
        "_blank_1": null,
        "_layer_id": "wg_points",
        "_layer_title": "수계 지명",
        "_source_file": "WG_PointLayer.csv",
        "Chinese Name": "八里江"
      }
    },
    {
      "type": "Feature",
      "geometry": {
        "type": "Point",
        "coordinates": [
          112.83,
          29.27
        ]
      },
      "properties": {
        "일련번호": "WS_002",
        "한국어이름": "동정호",
        "대분류": "수계 지명",
        "소분류": "호수",
        "분류근거": "湖",
        "소속행정구역(省)": "湖南",
        "소속행정구역(府/州)": "岳州",
        "소속행정구역(縣)": "-",
        "소속행정구역(기층)": "-",
        "『표ᄒᆡ록』": "동정호",
        "「서이방익사」": "洞庭湖",
        "『승정원일기』": "洞庭湖",
        "『일성록』": "-",
        "경도": "112.83",
        "위도": "29.27",
        "현재 위치 광역 단위": "중국_후난성",
        "현재 위치 기초 단위": "웨양시",
        "출처(논문)": "-",
        "출처(1차사료)": null,
        "_blank_1": null,
        "_layer_id": "wg_points",
        "_layer_title": "수계 지명",
        "_source_file": "WG_PointLayer.csv",
        "Chinese Name": "洞庭湖"
      }
    },
    {
      "type": "Feature",
      "geometry": {
        "type": "Point",
        "coordinates": [
          120.32,
          31.27
        ]
      },
      "properties": {
        "일련번호": "WS_004",
        "한국어이름": "태호",
        "대분류": "수계 지명",
        "소분류": "호수",
        "분류근거": "湖",
        "소속행정구역(省)": "江蘇",
        "소속행정구역(府/州)": "蘇州",
        "소속행정구역(縣)": "-",
        "소속행정구역(기층)": "-",
        "『표ᄒᆡ록』": "-",
        "「서이방익사」": "東洞庭",
        "『승정원일기』": "-",
        "『일성록』": "-",
        "경도": "120.32",
        "위도": "31.27",
        "현재 위치 광역 단위": "중국_장쑤성",
        "현재 위치 기초 단위": "쑤저우시_우중구",
        "출처(논문)": "-",
        "출처(1차사료)": null,
        "_blank_1": null,
        "_layer_id": "wg_points",
        "_layer_title": "수계 지명",
        "_source_file": "WG_PointLayer.csv",
        "Chinese Name": "太湖"
      }
    },
    {
      "type": "Feature",
      "geometry": {
        "type": "Point",
        "coordinates": [
          119.44,
          32.26
        ]
      },
      "properties": {
        "일련번호": "WS_005",
        "한국어이름": "과주",
        "대분류": "수계 지명",
        "소분류": "모래톱",
        "분류근거": "洲",
        "소속행정구역(省)": "江蘇",
        "소속행정구역(府/州)": "揚州",
        "소속행정구역(縣)": "江都",
        "소속행정구역(기층)": "-",
        "『표ᄒᆡ록』": "-",
        "「서이방익사」": "瓜洲*",
        "『승정원일기』": "-",
        "『일성록』": "-",
        "경도": "119.44",
        "위도": "32.26",
        "현재 위치 광역 단위": "중국_장쑤성",
        "현재 위치 기초 단위": "전장시_룬저우구",
        "출처(논문)": "역주",
        "출처(1차사료)": null,
        "_blank_1": "본문에는 없는거 아닌가?",
        "_layer_id": "wg_points",
        "_layer_title": "수계 지명",
        "_source_file": "WG_PointLayer.csv",
        "Chinese Name": "瓜洲"
      }
    },
    {
      "type": "Feature",
      "geometry": {
        "type": "Point",
        "coordinates": [
          119.01,
          33.59
        ]
      },
      "properties": {
        "일련번호": "WS_006",
        "한국어이름": "청강부",
        "대분류": "수계 지명",
        "소분류": "부두",
        "분류근거": "阜",
        "소속행정구역(省)": "江蘇",
        "소속행정구역(府/州)": "淮安",
        "소속행정구역(縣)": "淸河",
        "소속행정구역(기층)": "-",
        "『표ᄒᆡ록』": "-",
        "「서이방익사」": "淸江阜*",
        "『승정원일기』": "-",
        "『일성록』": "-",
        "경도": "119.01",
        "위도": "33.59",
        "현재 위치 광역 단위": "중국_장쑤성",
        "현재 위치 기초 단위": "화이안시_칭허구",
        "출처(논문)": "-",
        "출처(1차사료)": null,
        "_blank_1": null,
        "_layer_id": "wg_points",
        "_layer_title": "수계 지명",
        "_source_file": "WG_PointLayer.csv",
        "Chinese Name": "淸江阜"
      }
    }
  ]
}
